{
  "type": "FeatureCollection",
  "crs": {
    "type": "name",
    "properties": {
      "name": "urn:ogc:def:crs:OGC:1.3:CRS84"
    }
  },
  "features": [
    {
      "type": "Feature",
      "properties": {
        "layer": "reference",
        "crs_declared": "EPSG:4326",
        "crs_actual": "EPSG:4326",
        "honest": true
      },
      "geometry": {
        "type": "Polygon",
        "coordinates": [
          [
            [
              11.6,
              59.9
            ],
            [
              11.8,
              59.9
            ],
            [
              11.8,
              60.05
            ],
            [
              11.6,
              60.05
            ],
            [
              11.6,
              59.9
            ]
          ]
        ]
      }
    }
  ]
}
