{
  "type": "FeatureCollection",
  "name": "spike_invalid_polygon",
  "crs": {
    "type": "name",
    "properties": {
      "name": "EPSG:4326"
    }
  },
  "features": [
    {
      "type": "Feature",
      "properties": {
        "id": 1,
        "label": "spike_invalid"
      },
      "geometry": {
        "type": "Polygon",
        "coordinates": [
          [
            [0.0, 0.0],
            [4.0, 0.0],
            [4.0, 4.0],
            [2.0, 4.0],
            [2.0, 2.0],
            [2.0, 4.0],
            [0.0, 4.0],
            [0.0, 0.0]
          ]
        ]
      }
    }
  ]
}
