{
  "type": "FeatureCollection",
  "crs": {
    "type": "name",
    "properties": {
      "name": "EPSG:4326"
    }
  },
  "features": [
    {
      "type": "Feature",
      "properties": {
        "name": "equator_rectangle",
        "description": "Polygon straddling the equator"
      },
      "geometry": {
        "type": "Polygon",
        "coordinates": [
          [
            [-10.0, -5.0],
            [10.0, -5.0],
            [10.0, 5.0],
            [-10.0, 5.0],
            [-10.0, -5.0]
          ]
        ]
      }
    }
  ]
}
