{
  "type": "FeatureCollection",
  "name": "footprint",
  "crs": {
    "type": "name",
    "properties": {
      "name": "urn:ogc:def:crs:EPSG::32633"
    }
  },
  "features": [
    {
      "type": "Feature",
      "properties": {
        "location": "src/geocase/data/core/raster/footprint_edge_cases/hole_center_nodata.tif"
      },
      "geometry": {
        "type": "MultiPolygon",
        "coordinates": [
          [
            [
              [
                400030.0,
                4299670.0
              ],
              [
                400030.0,
                4299970.0
              ],
              [
                400330.0,
                4299970.0
              ],
              [
                400330.0,
                4299670.0
              ],
              [
                400030.0,
                4299670.0
              ]
            ]
          ]
        ]
      }
    }
  ]
}