{
  "crs": {
    "properties": {
      "name": "EPSG:32633"
    },
    "type": "name"
  },
  "features": [
    {
      "geometry": {
        "coordinates": [
          [
            [
              [
                250420.0,
                4599760.0
              ],
              [
                250420.0,
                4599790.0
              ],
              [
                250480.0,
                4599790.0
              ],
              [
                250480.0,
                4599760.0
              ],
              [
                250420.0,
                4599760.0
              ]
            ]
          ],
          [
            [
              [
                250420.0,
                4599820.0
              ],
              [
                250420.0,
                4599790.0
              ],
              [
                250360.0,
                4599790.0
              ],
              [
                250360.0,
                4599820.0
              ],
              [
                250420.0,
                4599820.0
              ]
            ]
          ],
          [
            [
              [
                250300.0,
                4599820.0
              ],
              [
                250300.0,
                4599850.0
              ],
              [
                250360.0,
                4599850.0
              ],
              [
                250360.0,
                4599820.0
              ],
              [
                250300.0,
                4599820.0
              ]
            ]
          ],
          [
            [
              [
                250300.0,
                4599880.0
              ],
              [
                250300.0,
                4599850.0
              ],
              [
                250240.0,
                4599850.0
              ],
              [
                250240.0,
                4599880.0
              ],
              [
                250300.0,
                4599880.0
              ]
            ]
          ],
          [
            [
              [
                250180.0,
                4599880.0
              ],
              [
                250180.0,
                4599910.0
              ],
              [
                250240.0,
                4599910.0
              ],
              [
                250240.0,
                4599880.0
              ],
              [
                250180.0,
                4599880.0
              ]
            ]
          ],
          [
            [
              [
                250180.0,
                4599940.0
              ],
              [
                250180.0,
                4599910.0
              ],
              [
                250120.0,
                4599910.0
              ],
              [
                250120.0,
                4599940.0
              ],
              [
                250180.0,
                4599940.0
              ]
            ]
          ],
          [
            [
              [
                250060.0,
                4599940.0
              ],
              [
                250060.0,
                4599970.0
              ],
              [
                250120.0,
                4599970.0
              ],
              [
                250120.0,
                4599940.0
              ],
              [
                250060.0,
                4599940.0
              ]
            ]
          ],
          [
            [
              [
                250060.0,
                4600000.0
              ],
              [
                250060.0,
                4599970.0
              ],
              [
                250000.0,
                4599970.0
              ],
              [
                250000.0,
                4600000.0
              ],
              [
                250060.0,
                4600000.0
              ]
            ]
          ]
        ],
        "type": "MultiPolygon"
      },
      "properties": {
        "case_id": "nonsquare_diagonal_sparse"
      },
      "type": "Feature"
    }
  ],
  "name": "nonsquare_diagonal_sparse_footprint_truth",
  "type": "FeatureCollection"
}
