{
  "type": "FeatureCollection",
  "name": "footprint",
  "crs": {
    "type": "name",
    "properties": {
      "name": "urn:ogc:def:crs:EPSG::32633"
    }
  },
  "features": [
    {
      "type": "Feature",
      "properties": {
        "location": "src/geocase/data/core/raster/footprint_edge_cases/rotated_two_islands.tif"
      },
      "geometry": {
        "type": "MultiPolygon",
        "coordinates": [
          [
            [
              [
                1200.0,
                1800.0
              ],
              [
                1140.0,
                1815.0
              ],
              [
                1015.0,
                1940.0
              ],
              [
                1000.0,
                2000.0
              ],
              [
                1060.0,
                1985.0
              ],
              [
                1180.0,
                1880.0
              ],
              [
                1200.0,
                1800.0
              ]
            ]
          ]
        ]
      }
    }
  ]
}