{
  "crs": {
    "properties": {
      "name": "EPSG:32633"
    },
    "type": "name"
  },
  "features": [
    {
      "geometry": {
        "coordinates": [
          [
            [
              700075.0,
              5099950.0
            ],
            [
              700075.0,
              5099700.0
            ],
            [
              700100.0,
              5099700.0
            ],
            [
              700100.0,
              5099725.0
            ],
            [
              700275.0,
              5099725.0
            ],
            [
              700275.0,
              5099750.0
            ],
            [
              700100.0,
              5099750.0
            ],
            [
              700100.0,
              5099875.0
            ],
            [
              700225.0,
              5099875.0
            ],
            [
              700225.0,
              5099900.0
            ],
            [
              700100.0,
              5099900.0
            ],
            [
              700100.0,
              5099950.0
            ],
            [
              700075.0,
              5099950.0
            ]
          ]
        ],
        "type": "Polygon"
      },
      "properties": {
        "case_id": "thin_corridor_shape"
      },
      "type": "Feature"
    }
  ],
  "name": "thin_corridor_shape_footprint_truth",
  "type": "FeatureCollection"
}
