{"type":"FeatureCollection","features":[{"type":"Feature","properties":{"id":1,"name":"fractal_coastline_polygon"},"geometry":{"type":"Polygon","coordinates":[[[-7.0,41.2],[-7.009259,41.216038],[-7.027778,41.216038],[-7.018519,41.232075],[-7.027778,41.248113],[-7.046296,41.248113],[-7.055556,41.232075],[-7.064815,41.248113],[-7.083333,41.248113],[-7.074074,41.26415],[-7.083333,41.280188],[-7.064815,41.280188],[-7.055556,41.296225],[-7.064815,41.312263],[-7.083333,41.312263],[-7.074074,41.3283],[-7.083333,41.344338],[-7.101852,41.344338],[-7.111111,41.3283],[-7.12037,41.344338],[-7.138889,41.344338],[-7.148148,41.3283],[-7.138889,41.312263],[-7.157407,41.312263],[-7.166667,41.296225],[-7.175926,41.312263],[-7.194444,41.312263],[-7.185185,41.3283],[-7.194444,41.344338],[-7.212963,41.344338],[-7.222222,41.3283],[-7.231481,41.344338],[-7.25,41.344338],[-7.240741,41.360375],[-7.25,41.376413],[-7.231481,41.376413],[-7.222222,41.39245],[-7.231481,41.408488],[-7.25,41.408488],[-7.240741,41.424525],[-7.25,41.440563],[-7.231481,41.440563],[-7.222222,41.4566],[-7.212963,41.440563],[-7.194444,41.440563],[-7.185185,41.4566],[-7.194444,41.472638],[-7.175926,41.472638],[-7.166667,41.488675],[-7.175926,41.504713],[-7.194444,41.504713],[-7.185185,41.52075],[-7.194444,41.536788],[-7.212963,41.536788],[-7.222222,41.52075],[-7.231481,41.536788],[-7.25,41.536788],[-7.240741,41.552825],[-7.25,41.568863],[-7.231481,41.568863],[-7.222222,41.5849],[-7.231481,41.600938],[-7.25,41.600938],[-7.240741,41.616975],[-7.25,41.633013],[-7.268519,41.633013],[-7.277778,41.616975],[-7.287037,41.633013],[-7.305556,41.633013],[-7.314815,41.616975],[-7.305556,41.600938],[-7.324074,41.600938],[-7.333333,41.5849],[-7.342593,41.600938],[-7.361111,41.600938],[-7.351852,41.616975],[-7.361111,41.633013],[-7.37963,41.633013],[-7.388889,41.616975],[-7.398148,41.633013],[-7.416667,41.633013],[-7.425926,41.616975],[-7.416667,41.600938],[-7.435185,41.600938],[-7.444444,41.5849],[-7.435185,41.568863],[-7.416667,41.568863],[-7.425926,41.552825],[-7.416667,41.536788],[-7.435185,41.536788],[-7.444444,41.52075],[-7.453704,41.536788],[-7.472222,41.536788],[-7.481481,41.52075],[-7.472222,41.504713],[-7.490741,41.504713],[-7.5,41.488675],[-7.509259,41.504713],[-7.527778,41.504713],[-7.518519,41.52075],[-7.527778,41.536788],[-7.546296,41.536788],[-7.555556,41.52075],[-7.564815,41.536788],[-7.583333,41.536788],[-7.574074,41.552825],[-7.583333,41.568863],[-7.564815,41.568863],[-7.555556,41.5849],[-7.564815,41.600938],[-7.583333,41.600938],[-7.574074,41.616975],[-7.583333,41.633013],[-7.601852,41.633013],[-7.611111,41.616975],[-7.62037,41.633013],[-7.638889,41.633013],[-7.648148,41.616975],[-7.638889,41.600938],[-7.657407,41.600938],[-7.666667,41.5849],[-7.675926,41.600938],[-7.694444,41.600938],[-7.685185,41.616975],[-7.694444,41.633013],[-7.712963,41.633013],[-7.722222,41.616975],[-7.731481,41.633013],[-7.75,41.633013],[-7.740741,41.64905],[-7.75,41.665088],[-7.731481,41.665088],[-7.722222,41.681125],[-7.731481,41.697163],[-7.75,41.697163],[-7.740741,41.7132],[-7.75,41.729238],[-7.731481,41.729238],[-7.722222,41.745275],[-7.712963,41.729238],[-7.694444,41.729238],[-7.685185,41.745275],[-7.694444,41.761313],[-7.675926,41.761313],[-7.666667,41.77735],[-7.675926,41.793388],[-7.694444,41.793388],[-7.685185,41.809425],[-7.694444,41.825463],[-7.712963,41.825463],[-7.722222,41.809425],[-7.731481,41.825463],[-7.75,41.825463],[-7.740741,41.8415],[-7.75,41.857538],[-7.731481,41.857538],[-7.722222,41.873575],[-7.731481,41.889613],[-7.75,41.889613],[-7.740741,41.90565],[-7.75,41.921688],[-7.731481,41.921688],[-7.722222,41.937725],[-7.712963,41.921688],[-7.694444,41.921688],[-7.685185,41.937725],[-7.694444,41.953763],[-7.675926,41.953763],[-7.666667,41.9698],[-7.657407,41.953763],[-7.638889,41.953763],[-7.648148,41.937725],[-7.638889,41.921688],[-7.62037,41.921688],[-7.611111,41.937725],[-7.601852,41.921688],[-7.583333,41.921688],[-7.574074,41.937725],[-7.583333,41.953763],[-7.564815,41.953763],[-7.555556,41.9698],[-7.564815,41.985838],[-7.583333,41.985838],[-7.574074,42.001875],[-7.583333,42.017913],[-7.564815,42.017913],[-7.555556,42.03395],[-7.546296,42.017913],[-7.527778,42.017913],[-7.518519,42.03395],[-7.527778,42.049988],[-7.509259,42.049988],[-7.5,42.066025],[-7.509259,42.082063],[-7.527778,42.082063],[-7.518519,42.0981],[-7.527778,42.114138],[-7.546296,42.114138],[-7.555556,42.0981],[-7.564815,42.114138],[-7.583333,42.114138],[-7.574074,42.130175],[-7.583333,42.146213],[-7.564815,42.146213],[-7.555556,42.16225],[-7.564815,42.178288],[-7.583333,42.178288],[-7.574074,42.194325],[-7.583333,42.210363],[-7.601852,42.210363],[-7.611111,42.194325],[-7.62037,42.210363],[-7.638889,42.210363],[-7.648148,42.194325],[-7.638889,42.178288],[-7.657407,42.178288],[-7.666667,42.16225],[-7.675926,42.178288],[-7.694444,42.178288],[-7.685185,42.194325],[-7.694444,42.210363],[-7.712963,42.210363],[-7.722222,42.194325],[-7.731481,42.210363],[-7.75,42.210363],[-7.740741,42.2264],[-7.75,42.242438],[-7.731481,42.242438],[-7.722222,42.258475],[-7.731481,42.274513],[-7.75,42.274513],[-7.740741,42.290551],[-7.75,42.306588],[-7.731481,42.306588],[-7.722222,42.322626],[-7.712963,42.306588],[-7.694444,42.306588],[-7.685185,42.322626],[-7.694444,42.338663],[-7.675926,42.338663],[-7.666667,42.354701],[-7.675926,42.370738],[-7.694444,42.370738],[-7.685185,42.386776],[-7.694444,42.402813],[-7.712963,42.402813],[-7.722222,42.386776],[-7.731481,42.402813],[-7.75,42.402813],[-7.740741,42.418851],[-7.75,42.434888],[-7.731481,42.434888],[-7.722222,42.450926],[-7.731481,42.466963],[-7.75,42.466963],[-7.740741,42.483001],[-7.75,42.499038],[-7.768519,42.499038],[-7.777778,42.483001],[-7.787037,42.499038],[-7.805556,42.499038],[-7.814815,42.483001],[-7.805556,42.466963],[-7.824074,42.466963],[-7.833333,42.450926],[-7.842593,42.466963],[-7.861111,42.466963],[-7.851852,42.483001],[-7.861111,42.499038],[-7.87963,42.499038],[-7.888889,42.483001],[-7.898148,42.499038],[-7.916667,42.499038],[-7.925926,42.483001],[-7.916667,42.466963],[-7.935185,42.466963],[-7.944444,42.450926],[-7.935185,42.434888],[-7.916667,42.434888],[-7.925926,42.418851],[-7.916667,42.402813],[-7.935185,42.402813],[-7.944444,42.386776],[-7.953704,42.402813],[-7.972222,42.402813],[-7.981481,42.386776],[-7.972222,42.370738],[-7.990741,42.370738],[-8.0,42.354701],[-8.009259,42.370738],[-8.027778,42.370738],[-8.018519,42.386776],[-8.027778,42.402813],[-8.046296,42.402813],[-8.055556,42.386776],[-8.064815,42.402813],[-8.083333,42.402813],[-8.074074,42.418851],[-8.083333,42.434888],[-8.064815,42.434888],[-8.055556,42.450926],[-8.064815,42.466963],[-8.083333,42.466963],[-8.074074,42.483001],[-8.083333,42.499038],[-8.101852,42.499038],[-8.111111,42.483001],[-8.12037,42.499038],[-8.138889,42.499038],[-8.148148,42.483001],[-8.138889,42.466963],[-8.157407,42.466963],[-8.166667,42.450926],[-8.175926,42.466963],[-8.194444,42.466963],[-8.185185,42.483001],[-8.194444,42.499038],[-8.212963,42.499038],[-8.222222,42.483001],[-8.231481,42.499038],[-8.25,42.499038],[-8.259259,42.483001],[-8.25,42.466963],[-8.268519,42.466963],[-8.277778,42.450926],[-8.268519,42.434888],[-8.25,42.434888],[-8.259259,42.418851],[-8.25,42.402813],[-8.268519,42.402813],[-8.277778,42.386776],[-8.287037,42.402813],[-8.305556,42.402813],[-8.314815,42.386776],[-8.305556,42.370738],[-8.324074,42.370738],[-8.333333,42.354701],[-8.324074,42.338663],[-8.305556,42.338663],[-8.314815,42.322626],[-8.305556,42.306588],[-8.287037,42.306588],[-8.277778,42.322626],[-8.268519,42.306588],[-8.25,42.306588],[-8.259259,42.290551],[-8.25,42.274513],[-8.268519,42.274513],[-8.277778,42.258475],[-8.268519,42.242438],[-8.25,42.242438],[-8.259259,42.2264],[-8.25,42.210363],[-8.268519,42.210363],[-8.277778,42.194325],[-8.287037,42.210363],[-8.305556,42.210363],[-8.314815,42.194325],[-8.305556,42.178288],[-8.324074,42.178288],[-8.333333,42.16225],[-8.342593,42.178288],[-8.361111,42.178288],[-8.351852,42.194325],[-8.361111,42.210363],[-8.37963,42.210363],[-8.388889,42.194325],[-8.398148,42.210363],[-8.416667,42.210363],[-8.425926,42.194325],[-8.416667,42.178288],[-8.435185,42.178288],[-8.444444,42.16225],[-8.435185,42.146213],[-8.416667,42.146213],[-8.425926,42.130175],[-8.416667,42.114138],[-8.435185,42.114138],[-8.444444,42.0981],[-8.453704,42.114138],[-8.472222,42.114138],[-8.481481,42.0981],[-8.472222,42.082063],[-8.490741,42.082063],[-8.5,42.066025],[-8.509259,42.082063],[-8.527778,42.082063],[-8.518519,42.0981],[-8.527778,42.114138],[-8.546296,42.114138],[-8.555556,42.0981],[-8.564815,42.114138],[-8.583333,42.114138],[-8.574074,42.130175],[-8.583333,42.146213],[-8.564815,42.146213],[-8.555556,42.16225],[-8.564815,42.178288],[-8.583333,42.178288],[-8.574074,42.194325],[-8.583333,42.210363],[-8.601852,42.210363],[-8.611111,42.194325],[-8.62037,42.210363],[-8.638889,42.210363],[-8.648148,42.194325],[-8.638889,42.178288],[-8.657407,42.178288],[-8.666667,42.16225],[-8.675926,42.178288],[-8.694444,42.178288],[-8.685185,42.194325],[-8.694444,42.210363],[-8.712963,42.210363],[-8.722222,42.194325],[-8.731481,42.210363],[-8.75,42.210363],[-8.740741,42.2264],[-8.75,42.242438],[-8.731481,42.242438],[-8.722222,42.258475],[-8.731481,42.274513],[-8.75,42.274513],[-8.740741,42.290551],[-8.75,42.306588],[-8.731481,42.306588],[-8.722222,42.322626],[-8.712963,42.306588],[-8.694444,42.306588],[-8.685185,42.322626],[-8.694444,42.338663],[-8.675926,42.338663],[-8.666667,42.354701],[-8.675926,42.370738],[-8.694444,42.370738],[-8.685185,42.386776],[-8.694444,42.402813],[-8.712963,42.402813],[-8.722222,42.386776],[-8.731481,42.402813],[-8.75,42.402813],[-8.740741,42.418851],[-8.75,42.434888],[-8.731481,42.434888],[-8.722222,42.450926],[-8.731481,42.466963],[-8.75,42.466963],[-8.740741,42.483001],[-8.75,42.499038],[-8.768519,42.499038],[-8.777778,42.483001],[-8.787037,42.499038],[-8.805556,42.499038],[-8.814815,42.483001],[-8.805556,42.466963],[-8.824074,42.466963],[-8.833333,42.450926],[-8.842593,42.466963],[-8.861111,42.466963],[-8.851852,42.483001],[-8.861111,42.499038],[-8.87963,42.499038],[-8.888889,42.483001],[-8.898148,42.499038],[-8.916667,42.499038],[-8.925926,42.483001],[-8.916667,42.466963],[-8.935185,42.466963],[-8.944444,42.450926],[-8.935185,42.434888],[-8.916667,42.434888],[-8.925926,42.418851],[-8.916667,42.402813],[-8.935185,42.402813],[-8.944444,42.386776],[-8.953704,42.402813],[-8.972222,42.402813],[-8.981481,42.386776],[-8.972222,42.370738],[-8.990741,42.370738],[-9.0,42.354701],[-9.009259,42.370738],[-9.027778,42.370738],[-9.018519,42.386776],[-9.027778,42.402813],[-9.046296,42.402813],[-9.055556,42.386776],[-9.064815,42.402813],[-9.083333,42.402813],[-9.074074,42.418851],[-9.083333,42.434888],[-9.064815,42.434888],[-9.055556,42.450926],[-9.064815,42.466963],[-9.083333,42.466963],[-9.074074,42.483001],[-9.083333,42.499038],[-9.101852,42.499038],[-9.111111,42.483001],[-9.12037,42.499038],[-9.138889,42.499038],[-9.148148,42.483001],[-9.138889,42.466963],[-9.157407,42.466963],[-9.166667,42.450926],[-9.175926,42.466963],[-9.194444,42.466963],[-9.185185,42.483001],[-9.194444,42.499038],[-9.212963,42.499038],[-9.222222,42.483001],[-9.231481,42.499038],[-9.25,42.499038],[-9.259259,42.483001],[-9.25,42.466963],[-9.268519,42.466963],[-9.277778,42.450926],[-9.268519,42.434888],[-9.25,42.434888],[-9.259259,42.418851],[-9.25,42.402813],[-9.268519,42.402813],[-9.277778,42.386776],[-9.287037,42.402813],[-9.305556,42.402813],[-9.314815,42.386776],[-9.305556,42.370738],[-9.324074,42.370738],[-9.333333,42.354701],[-9.324074,42.338663],[-9.305556,42.338663],[-9.314815,42.322626],[-9.305556,42.306588],[-9.287037,42.306588],[-9.277778,42.322626],[-9.268519,42.306588],[-9.25,42.306588],[-9.259259,42.290551],[-9.25,42.274513],[-9.268519,42.274513],[-9.277778,42.258475],[-9.268519,42.242438],[-9.25,42.242438],[-9.259259,42.2264],[-9.25,42.210363],[-9.268519,42.210363],[-9.277778,42.194325],[-9.287037,42.210363],[-9.305556,42.210363],[-9.314815,42.194325],[-9.305556,42.178288],[-9.324074,42.178288],[-9.333333,42.16225],[-9.342593,42.178288],[-9.361111,42.178288],[-9.351852,42.194325],[-9.361111,42.210363],[-9.37963,42.210363],[-9.388889,42.194325],[-9.398148,42.210363],[-9.416667,42.210363],[-9.425926,42.194325],[-9.416667,42.178288],[-9.435185,42.178288],[-9.444444,42.16225],[-9.435185,42.146213],[-9.416667,42.146213],[-9.425926,42.130175],[-9.416667,42.114138],[-9.435185,42.114138],[-9.444444,42.0981],[-9.453704,42.114138],[-9.472222,42.114138],[-9.481481,42.0981],[-9.472222,42.082063],[-9.490741,42.082063],[-9.5,42.066025],[-9.490741,42.049988],[-9.472222,42.049988],[-9.481481,42.03395],[-9.472222,42.017913],[-9.453704,42.017913],[-9.444444,42.03395],[-9.435185,42.017913],[-9.416667,42.017913],[-9.425926,42.001875],[-9.416667,41.985838],[-9.435185,41.985838],[-9.444444,41.9698],[-9.435185,41.953763],[-9.416667,41.953763],[-9.425926,41.937725],[-9.416667,41.921688],[-9.398148,41.921688],[-9.388889,41.937725],[-9.37963,41.921688],[-9.361111,41.921688],[-9.351852,41.937725],[-9.361111,41.953763],[-9.342593,41.953763],[-9.333333,41.9698],[-9.324074,41.953763],[-9.305556,41.953763],[-9.314815,41.937725],[-9.305556,41.921688],[-9.287037,41.921688],[-9.277778,41.937725],[-9.268519,41.921688],[-9.25,41.921688],[-9.259259,41.90565],[-9.25,41.889613],[-9.268519,41.889613],[-9.277778,41.873575],[-9.268519,41.857538],[-9.25,41.857538],[-9.259259,41.8415],[-9.25,41.825463],[-9.268519,41.825463],[-9.277778,41.809425],[-9.287037,41.825463],[-9.305556,41.825463],[-9.314815,41.809425],[-9.305556,41.793388],[-9.324074,41.793388],[-9.333333,41.77735],[-9.324074,41.761313],[-9.305556,41.761313],[-9.314815,41.745275],[-9.305556,41.729238],[-9.287037,41.729238],[-9.277778,41.745275],[-9.268519,41.729238],[-9.25,41.729238],[-9.259259,41.7132],[-9.25,41.697163],[-9.268519,41.697163],[-9.277778,41.681125],[-9.268519,41.665088],[-9.25,41.665088],[-9.259259,41.64905],[-9.25,41.633013],[-9.268519,41.633013],[-9.277778,41.616975],[-9.287037,41.633013],[-9.305556,41.633013],[-9.314815,41.616975],[-9.305556,41.600938],[-9.324074,41.600938],[-9.333333,41.5849],[-9.342593,41.600938],[-9.361111,41.600938],[-9.351852,41.616975],[-9.361111,41.633013],[-9.37963,41.633013],[-9.388889,41.616975],[-9.398148,41.633013],[-9.416667,41.633013],[-9.425926,41.616975],[-9.416667,41.600938],[-9.435185,41.600938],[-9.444444,41.5849],[-9.435185,41.568863],[-9.416667,41.568863],[-9.425926,41.552825],[-9.416667,41.536788],[-9.435185,41.536788],[-9.444444,41.52075],[-9.453704,41.536788],[-9.472222,41.536788],[-9.481481,41.52075],[-9.472222,41.504713],[-9.490741,41.504713],[-9.5,41.488675],[-9.509259,41.504713],[-9.527778,41.504713],[-9.518519,41.52075],[-9.527778,41.536788],[-9.546296,41.536788],[-9.555556,41.52075],[-9.564815,41.536788],[-9.583333,41.536788],[-9.574074,41.552825],[-9.583333,41.568863],[-9.564815,41.568863],[-9.555556,41.5849],[-9.564815,41.600938],[-9.583333,41.600938],[-9.574074,41.616975],[-9.583333,41.633013],[-9.601852,41.633013],[-9.611111,41.616975],[-9.62037,41.633013],[-9.638889,41.633013],[-9.648148,41.616975],[-9.638889,41.600938],[-9.657407,41.600938],[-9.666667,41.5849],[-9.675926,41.600938],[-9.694444,41.600938],[-9.685185,41.616975],[-9.694444,41.633013],[-9.712963,41.633013],[-9.722222,41.616975],[-9.731481,41.633013],[-9.75,41.633013],[-9.759259,41.616975],[-9.75,41.600938],[-9.768519,41.600938],[-9.777778,41.5849],[-9.768519,41.568863],[-9.75,41.568863],[-9.759259,41.552825],[-9.75,41.536788],[-9.768519,41.536788],[-9.777778,41.52075],[-9.787037,41.536788],[-9.805556,41.536788],[-9.814815,41.52075],[-9.805556,41.504713],[-9.824074,41.504713],[-9.833333,41.488675],[-9.824074,41.472638],[-9.805556,41.472638],[-9.814815,41.4566],[-9.805556,41.440563],[-9.787037,41.440563],[-9.777778,41.4566],[-9.768519,41.440563],[-9.75,41.440563],[-9.759259,41.424525],[-9.75,41.408488],[-9.768519,41.408488],[-9.777778,41.39245],[-9.768519,41.376413],[-9.75,41.376413],[-9.759259,41.360375],[-9.75,41.344338],[-9.768519,41.344338],[-9.777778,41.3283],[-9.787037,41.344338],[-9.805556,41.344338],[-9.814815,41.3283],[-9.805556,41.312263],[-9.824074,41.312263],[-9.833333,41.296225],[-9.842593,41.312263],[-9.861111,41.312263],[-9.851852,41.3283],[-9.861111,41.344338],[-9.87963,41.344338],[-9.888889,41.3283],[-9.898148,41.344338],[-9.916667,41.344338],[-9.925926,41.3283],[-9.916667,41.312263],[-9.935185,41.312263],[-9.944444,41.296225],[-9.935185,41.280188],[-9.916667,41.280188],[-9.925926,41.26415],[-9.916667,41.248113],[-9.935185,41.248113],[-9.944444,41.232075],[-9.953704,41.248113],[-9.972222,41.248113],[-9.981481,41.232075],[-9.972222,41.216038],[-9.990741,41.216038],[-10.0,41.2],[-9.990741,41.183962],[-9.972222,41.183962],[-9.981481,41.167925],[-9.972222,41.151887],[-9.953704,41.151887],[-9.944444,41.167925],[-9.935185,41.151887],[-9.916667,41.151887],[-9.925926,41.13585],[-9.916667,41.119812],[-9.935185,41.119812],[-9.944444,41.103775],[-9.935185,41.087737],[-9.916667,41.087737],[-9.925926,41.0717],[-9.916667,41.055662],[-9.898148,41.055662],[-9.888889,41.0717],[-9.87963,41.055662],[-9.861111,41.055662],[-9.851852,41.0717],[-9.861111,41.087737],[-9.842593,41.087737],[-9.833333,41.103775],[-9.824074,41.087737],[-9.805556,41.087737],[-9.814815,41.0717],[-9.805556,41.055662],[-9.787037,41.055662],[-9.777778,41.0717],[-9.768519,41.055662],[-9.75,41.055662],[-9.759259,41.039625],[-9.75,41.023587],[-9.768519,41.023587],[-9.777778,41.00755],[-9.768519,40.991512],[-9.75,40.991512],[-9.759259,40.975475],[-9.75,40.959437],[-9.768519,40.959437],[-9.777778,40.9434],[-9.787037,40.959437],[-9.805556,40.959437],[-9.814815,40.9434],[-9.805556,40.927362],[-9.824074,40.927362],[-9.833333,40.911325],[-9.824074,40.895287],[-9.805556,40.895287],[-9.814815,40.87925],[-9.805556,40.863212],[-9.787037,40.863212],[-9.777778,40.87925],[-9.768519,40.863212],[-9.75,40.863212],[-9.759259,40.847175],[-9.75,40.831137],[-9.768519,40.831137],[-9.777778,40.8151],[-9.768519,40.799062],[-9.75,40.799062],[-9.759259,40.783025],[-9.75,40.766987],[-9.731481,40.766987],[-9.722222,40.783025],[-9.712963,40.766987],[-9.694444,40.766987],[-9.685185,40.783025],[-9.694444,40.799062],[-9.675926,40.799062],[-9.666667,40.8151],[-9.657407,40.799062],[-9.638889,40.799062],[-9.648148,40.783025],[-9.638889,40.766987],[-9.62037,40.766987],[-9.611111,40.783025],[-9.601852,40.766987],[-9.583333,40.766987],[-9.574074,40.783025],[-9.583333,40.799062],[-9.564815,40.799062],[-9.555556,40.8151],[-9.564815,40.831137],[-9.583333,40.831137],[-9.574074,40.847175],[-9.583333,40.863212],[-9.564815,40.863212],[-9.555556,40.87925],[-9.546296,40.863212],[-9.527778,40.863212],[-9.518519,40.87925],[-9.527778,40.895287],[-9.509259,40.895287],[-9.5,40.911325],[-9.490741,40.895287],[-9.472222,40.895287],[-9.481481,40.87925],[-9.472222,40.863212],[-9.453704,40.863212],[-9.444444,40.87925],[-9.435185,40.863212],[-9.416667,40.863212],[-9.425926,40.847175],[-9.416667,40.831137],[-9.435185,40.831137],[-9.444444,40.8151],[-9.435185,40.799062],[-9.416667,40.799062],[-9.425926,40.783025],[-9.416667,40.766987],[-9.398148,40.766987],[-9.388889,40.783025],[-9.37963,40.766987],[-9.361111,40.766987],[-9.351852,40.783025],[-9.361111,40.799062],[-9.342593,40.799062],[-9.333333,40.8151],[-9.324074,40.799062],[-9.305556,40.799062],[-9.314815,40.783025],[-9.305556,40.766987],[-9.287037,40.766987],[-9.277778,40.783025],[-9.268519,40.766987],[-9.25,40.766987],[-9.259259,40.75095],[-9.25,40.734912],[-9.268519,40.734912],[-9.277778,40.718875],[-9.268519,40.702837],[-9.25,40.702837],[-9.259259,40.6868],[-9.25,40.670762],[-9.268519,40.670762],[-9.277778,40.654725],[-9.287037,40.670762],[-9.305556,40.670762],[-9.314815,40.654725],[-9.305556,40.638687],[-9.324074,40.638687],[-9.333333,40.62265],[-9.324074,40.606612],[-9.305556,40.606612],[-9.314815,40.590575],[-9.305556,40.574537],[-9.287037,40.574537],[-9.277778,40.590575],[-9.268519,40.574537],[-9.25,40.574537],[-9.259259,40.5585],[-9.25,40.542462],[-9.268519,40.542462],[-9.277778,40.526425],[-9.268519,40.510387],[-9.25,40.510387],[-9.259259,40.49435],[-9.25,40.478312],[-9.268519,40.478312],[-9.277778,40.462275],[-9.287037,40.478312],[-9.305556,40.478312],[-9.314815,40.462275],[-9.305556,40.446237],[-9.324074,40.446237],[-9.333333,40.4302],[-9.342593,40.446237],[-9.361111,40.446237],[-9.351852,40.462275],[-9.361111,40.478312],[-9.37963,40.478312],[-9.388889,40.462275],[-9.398148,40.478312],[-9.416667,40.478312],[-9.425926,40.462275],[-9.416667,40.446237],[-9.435185,40.446237],[-9.444444,40.4302],[-9.435185,40.414162],[-9.416667,40.414162],[-9.425926,40.398125],[-9.416667,40.382087],[-9.435185,40.382087],[-9.444444,40.36605],[-9.453704,40.382087],[-9.472222,40.382087],[-9.481481,40.36605],[-9.472222,40.350012],[-9.490741,40.350012],[-9.5,40.333975],[-9.490741,40.317937],[-9.472222,40.317937],[-9.481481,40.3019],[-9.472222,40.285862],[-9.453704,40.285862],[-9.444444,40.3019],[-9.435185,40.285862],[-9.416667,40.285862],[-9.425926,40.269825],[-9.416667,40.253787],[-9.435185,40.253787],[-9.444444,40.23775],[-9.435185,40.221712],[-9.416667,40.221712],[-9.425926,40.205675],[-9.416667,40.189637],[-9.398148,40.189637],[-9.388889,40.205675],[-9.37963,40.189637],[-9.361111,40.189637],[-9.351852,40.205675],[-9.361111,40.221712],[-9.342593,40.221712],[-9.333333,40.23775],[-9.324074,40.221712],[-9.305556,40.221712],[-9.314815,40.205675],[-9.305556,40.189637],[-9.287037,40.189637],[-9.277778,40.205675],[-9.268519,40.189637],[-9.25,40.189637],[-9.259259,40.1736],[-9.25,40.157562],[-9.268519,40.157562],[-9.277778,40.141525],[-9.268519,40.125487],[-9.25,40.125487],[-9.259259,40.109449],[-9.25,40.093412],[-9.268519,40.093412],[-9.277778,40.077374],[-9.287037,40.093412],[-9.305556,40.093412],[-9.314815,40.077374],[-9.305556,40.061337],[-9.324074,40.061337],[-9.333333,40.045299],[-9.324074,40.029262],[-9.305556,40.029262],[-9.314815,40.013224],[-9.305556,39.997187],[-9.287037,39.997187],[-9.277778,40.013224],[-9.268519,39.997187],[-9.25,39.997187],[-9.259259,39.981149],[-9.25,39.965112],[-9.268519,39.965112],[-9.277778,39.949074],[-9.268519,39.933037],[-9.25,39.933037],[-9.259259,39.916999],[-9.25,39.900962],[-9.231481,39.900962],[-9.222222,39.916999],[-9.212963,39.900962],[-9.194444,39.900962],[-9.185185,39.916999],[-9.194444,39.933037],[-9.175926,39.933037],[-9.166667,39.949074],[-9.157407,39.933037],[-9.138889,39.933037],[-9.148148,39.916999],[-9.138889,39.900962],[-9.12037,39.900962],[-9.111111,39.916999],[-9.101852,39.900962],[-9.083333,39.900962],[-9.074074,39.916999],[-9.083333,39.933037],[-9.064815,39.933037],[-9.055556,39.949074],[-9.064815,39.965112],[-9.083333,39.965112],[-9.074074,39.981149],[-9.083333,39.997187],[-9.064815,39.997187],[-9.055556,40.013224],[-9.046296,39.997187],[-9.027778,39.997187],[-9.018519,40.013224],[-9.027778,40.029262],[-9.009259,40.029262],[-9.0,40.045299],[-8.990741,40.029262],[-8.972222,40.029262],[-8.981481,40.013224],[-8.972222,39.997187],[-8.953704,39.997187],[-8.944444,40.013224],[-8.935185,39.997187],[-8.916667,39.997187],[-8.925926,39.981149],[-8.916667,39.965112],[-8.935185,39.965112],[-8.944444,39.949074],[-8.935185,39.933037],[-8.916667,39.933037],[-8.925926,39.916999],[-8.916667,39.900962],[-8.898148,39.900962],[-8.888889,39.916999],[-8.87963,39.900962],[-8.861111,39.900962],[-8.851852,39.916999],[-8.861111,39.933037],[-8.842593,39.933037],[-8.833333,39.949074],[-8.824074,39.933037],[-8.805556,39.933037],[-8.814815,39.916999],[-8.805556,39.900962],[-8.787037,39.900962],[-8.777778,39.916999],[-8.768519,39.900962],[-8.75,39.900962],[-8.740741,39.916999],[-8.75,39.933037],[-8.731481,39.933037],[-8.722222,39.949074],[-8.731481,39.965112],[-8.75,39.965112],[-8.740741,39.981149],[-8.75,39.997187],[-8.731481,39.997187],[-8.722222,40.013224],[-8.712963,39.997187],[-8.694444,39.997187],[-8.685185,40.013224],[-8.694444,40.029262],[-8.675926,40.029262],[-8.666667,40.045299],[-8.675926,40.061337],[-8.694444,40.061337],[-8.685185,40.077374],[-8.694444,40.093412],[-8.712963,40.093412],[-8.722222,40.077374],[-8.731481,40.093412],[-8.75,40.093412],[-8.740741,40.109449],[-8.75,40.125487],[-8.731481,40.125487],[-8.722222,40.141525],[-8.731481,40.157562],[-8.75,40.157562],[-8.740741,40.1736],[-8.75,40.189637],[-8.731481,40.189637],[-8.722222,40.205675],[-8.712963,40.189637],[-8.694444,40.189637],[-8.685185,40.205675],[-8.694444,40.221712],[-8.675926,40.221712],[-8.666667,40.23775],[-8.657407,40.221712],[-8.638889,40.221712],[-8.648148,40.205675],[-8.638889,40.189637],[-8.62037,40.189637],[-8.611111,40.205675],[-8.601852,40.189637],[-8.583333,40.189637],[-8.574074,40.205675],[-8.583333,40.221712],[-8.564815,40.221712],[-8.555556,40.23775],[-8.564815,40.253787],[-8.583333,40.253787],[-8.574074,40.269825],[-8.583333,40.285862],[-8.564815,40.285862],[-8.555556,40.3019],[-8.546296,40.285862],[-8.527778,40.285862],[-8.518519,40.3019],[-8.527778,40.317937],[-8.509259,40.317937],[-8.5,40.333975],[-8.490741,40.317937],[-8.472222,40.317937],[-8.481481,40.3019],[-8.472222,40.285862],[-8.453704,40.285862],[-8.444444,40.3019],[-8.435185,40.285862],[-8.416667,40.285862],[-8.425926,40.269825],[-8.416667,40.253787],[-8.435185,40.253787],[-8.444444,40.23775],[-8.435185,40.221712],[-8.416667,40.221712],[-8.425926,40.205675],[-8.416667,40.189637],[-8.398148,40.189637],[-8.388889,40.205675],[-8.37963,40.189637],[-8.361111,40.189637],[-8.351852,40.205675],[-8.361111,40.221712],[-8.342593,40.221712],[-8.333333,40.23775],[-8.324074,40.221712],[-8.305556,40.221712],[-8.314815,40.205675],[-8.305556,40.189637],[-8.287037,40.189637],[-8.277778,40.205675],[-8.268519,40.189637],[-8.25,40.189637],[-8.259259,40.1736],[-8.25,40.157562],[-8.268519,40.157562],[-8.277778,40.141525],[-8.268519,40.125487],[-8.25,40.125487],[-8.259259,40.109449],[-8.25,40.093412],[-8.268519,40.093412],[-8.277778,40.077374],[-8.287037,40.093412],[-8.305556,40.093412],[-8.314815,40.077374],[-8.305556,40.061337],[-8.324074,40.061337],[-8.333333,40.045299],[-8.324074,40.029262],[-8.305556,40.029262],[-8.314815,40.013224],[-8.305556,39.997187],[-8.287037,39.997187],[-8.277778,40.013224],[-8.268519,39.997187],[-8.25,39.997187],[-8.259259,39.981149],[-8.25,39.965112],[-8.268519,39.965112],[-8.277778,39.949074],[-8.268519,39.933037],[-8.25,39.933037],[-8.259259,39.916999],[-8.25,39.900962],[-8.231481,39.900962],[-8.222222,39.916999],[-8.212963,39.900962],[-8.194444,39.900962],[-8.185185,39.916999],[-8.194444,39.933037],[-8.175926,39.933037],[-8.166667,39.949074],[-8.157407,39.933037],[-8.138889,39.933037],[-8.148148,39.916999],[-8.138889,39.900962],[-8.12037,39.900962],[-8.111111,39.916999],[-8.101852,39.900962],[-8.083333,39.900962],[-8.074074,39.916999],[-8.083333,39.933037],[-8.064815,39.933037],[-8.055556,39.949074],[-8.064815,39.965112],[-8.083333,39.965112],[-8.074074,39.981149],[-8.083333,39.997187],[-8.064815,39.997187],[-8.055556,40.013224],[-8.046296,39.997187],[-8.027778,39.997187],[-8.018519,40.013224],[-8.027778,40.029262],[-8.009259,40.029262],[-8.0,40.045299],[-7.990741,40.029262],[-7.972222,40.029262],[-7.981481,40.013224],[-7.972222,39.997187],[-7.953704,39.997187],[-7.944444,40.013224],[-7.935185,39.997187],[-7.916667,39.997187],[-7.925926,39.981149],[-7.916667,39.965112],[-7.935185,39.965112],[-7.944444,39.949074],[-7.935185,39.933037],[-7.916667,39.933037],[-7.925926,39.916999],[-7.916667,39.900962],[-7.898148,39.900962],[-7.888889,39.916999],[-7.87963,39.900962],[-7.861111,39.900962],[-7.851852,39.916999],[-7.861111,39.933037],[-7.842593,39.933037],[-7.833333,39.949074],[-7.824074,39.933037],[-7.805556,39.933037],[-7.814815,39.916999],[-7.805556,39.900962],[-7.787037,39.900962],[-7.777778,39.916999],[-7.768519,39.900962],[-7.75,39.900962],[-7.740741,39.916999],[-7.75,39.933037],[-7.731481,39.933037],[-7.722222,39.949074],[-7.731481,39.965112],[-7.75,39.965112],[-7.740741,39.981149],[-7.75,39.997187],[-7.731481,39.997187],[-7.722222,40.013224],[-7.712963,39.997187],[-7.694444,39.997187],[-7.685185,40.013224],[-7.694444,40.029262],[-7.675926,40.029262],[-7.666667,40.045299],[-7.675926,40.061337],[-7.694444,40.061337],[-7.685185,40.077374],[-7.694444,40.093412],[-7.712963,40.093412],[-7.722222,40.077374],[-7.731481,40.093412],[-7.75,40.093412],[-7.740741,40.109449],[-7.75,40.125487],[-7.731481,40.125487],[-7.722222,40.141525],[-7.731481,40.157562],[-7.75,40.157562],[-7.740741,40.1736],[-7.75,40.189637],[-7.731481,40.189637],[-7.722222,40.205675],[-7.712963,40.189637],[-7.694444,40.189637],[-7.685185,40.205675],[-7.694444,40.221712],[-7.675926,40.221712],[-7.666667,40.23775],[-7.657407,40.221712],[-7.638889,40.221712],[-7.648148,40.205675],[-7.638889,40.189637],[-7.62037,40.189637],[-7.611111,40.205675],[-7.601852,40.189637],[-7.583333,40.189637],[-7.574074,40.205675],[-7.583333,40.221712],[-7.564815,40.221712],[-7.555556,40.23775],[-7.564815,40.253787],[-7.583333,40.253787],[-7.574074,40.269825],[-7.583333,40.285862],[-7.564815,40.285862],[-7.555556,40.3019],[-7.546296,40.285862],[-7.527778,40.285862],[-7.518519,40.3019],[-7.527778,40.317937],[-7.509259,40.317937],[-7.5,40.333975],[-7.509259,40.350012],[-7.527778,40.350012],[-7.518519,40.36605],[-7.527778,40.382087],[-7.546296,40.382087],[-7.555556,40.36605],[-7.564815,40.382087],[-7.583333,40.382087],[-7.574074,40.398125],[-7.583333,40.414162],[-7.564815,40.414162],[-7.555556,40.4302],[-7.564815,40.446237],[-7.583333,40.446237],[-7.574074,40.462275],[-7.583333,40.478312],[-7.601852,40.478312],[-7.611111,40.462275],[-7.62037,40.478312],[-7.638889,40.478312],[-7.648148,40.462275],[-7.638889,40.446237],[-7.657407,40.446237],[-7.666667,40.4302],[-7.675926,40.446237],[-7.694444,40.446237],[-7.685185,40.462275],[-7.694444,40.478312],[-7.712963,40.478312],[-7.722222,40.462275],[-7.731481,40.478312],[-7.75,40.478312],[-7.740741,40.49435],[-7.75,40.510387],[-7.731481,40.510387],[-7.722222,40.526425],[-7.731481,40.542462],[-7.75,40.542462],[-7.740741,40.5585],[-7.75,40.574537],[-7.731481,40.574537],[-7.722222,40.590575],[-7.712963,40.574537],[-7.694444,40.574537],[-7.685185,40.590575],[-7.694444,40.606612],[-7.675926,40.606612],[-7.666667,40.62265],[-7.675926,40.638687],[-7.694444,40.638687],[-7.685185,40.654725],[-7.694444,40.670762],[-7.712963,40.670762],[-7.722222,40.654725],[-7.731481,40.670762],[-7.75,40.670762],[-7.740741,40.6868],[-7.75,40.702837],[-7.731481,40.702837],[-7.722222,40.718875],[-7.731481,40.734912],[-7.75,40.734912],[-7.740741,40.75095],[-7.75,40.766987],[-7.731481,40.766987],[-7.722222,40.783025],[-7.712963,40.766987],[-7.694444,40.766987],[-7.685185,40.783025],[-7.694444,40.799062],[-7.675926,40.799062],[-7.666667,40.8151],[-7.657407,40.799062],[-7.638889,40.799062],[-7.648148,40.783025],[-7.638889,40.766987],[-7.62037,40.766987],[-7.611111,40.783025],[-7.601852,40.766987],[-7.583333,40.766987],[-7.574074,40.783025],[-7.583333,40.799062],[-7.564815,40.799062],[-7.555556,40.8151],[-7.564815,40.831137],[-7.583333,40.831137],[-7.574074,40.847175],[-7.583333,40.863212],[-7.564815,40.863212],[-7.555556,40.87925],[-7.546296,40.863212],[-7.527778,40.863212],[-7.518519,40.87925],[-7.527778,40.895287],[-7.509259,40.895287],[-7.5,40.911325],[-7.490741,40.895287],[-7.472222,40.895287],[-7.481481,40.87925],[-7.472222,40.863212],[-7.453704,40.863212],[-7.444444,40.87925],[-7.435185,40.863212],[-7.416667,40.863212],[-7.425926,40.847175],[-7.416667,40.831137],[-7.435185,40.831137],[-7.444444,40.8151],[-7.435185,40.799062],[-7.416667,40.799062],[-7.425926,40.783025],[-7.416667,40.766987],[-7.398148,40.766987],[-7.388889,40.783025],[-7.37963,40.766987],[-7.361111,40.766987],[-7.351852,40.783025],[-7.361111,40.799062],[-7.342593,40.799062],[-7.333333,40.8151],[-7.324074,40.799062],[-7.305556,40.799062],[-7.314815,40.783025],[-7.305556,40.766987],[-7.287037,40.766987],[-7.277778,40.783025],[-7.268519,40.766987],[-7.25,40.766987],[-7.240741,40.783025],[-7.25,40.799062],[-7.231481,40.799062],[-7.222222,40.8151],[-7.231481,40.831137],[-7.25,40.831137],[-7.240741,40.847175],[-7.25,40.863212],[-7.231481,40.863212],[-7.222222,40.87925],[-7.212963,40.863212],[-7.194444,40.863212],[-7.185185,40.87925],[-7.194444,40.895287],[-7.175926,40.895287],[-7.166667,40.911325],[-7.175926,40.927362],[-7.194444,40.927362],[-7.185185,40.9434],[-7.194444,40.959437],[-7.212963,40.959437],[-7.222222,40.9434],[-7.231481,40.959437],[-7.25,40.959437],[-7.240741,40.975475],[-7.25,40.991512],[-7.231481,40.991512],[-7.222222,41.00755],[-7.231481,41.023587],[-7.25,41.023587],[-7.240741,41.039625],[-7.25,41.055662],[-7.231481,41.055662],[-7.222222,41.0717],[-7.212963,41.055662],[-7.194444,41.055662],[-7.185185,41.0717],[-7.194444,41.087737],[-7.175926,41.087737],[-7.166667,41.103775],[-7.157407,41.087737],[-7.138889,41.087737],[-7.148148,41.0717],[-7.138889,41.055662],[-7.12037,41.055662],[-7.111111,41.0717],[-7.101852,41.055662],[-7.083333,41.055662],[-7.074074,41.0717],[-7.083333,41.087737],[-7.064815,41.087737],[-7.055556,41.103775],[-7.064815,41.119812],[-7.083333,41.119812],[-7.074074,41.13585],[-7.083333,41.151887],[-7.064815,41.151887],[-7.055556,41.167925],[-7.046296,41.151887],[-7.027778,41.151887],[-7.018519,41.167925],[-7.027778,41.183962],[-7.009259,41.183962],[-7.0,41.2]]]}}]}
