{
  "type": "FeatureCollection",
  "crs": {
    "type": "name",
    "properties": {
      "name": "EPSG:4326"
    }
  },
  "features": [
    {
      "type": "Feature",
      "properties": {
        "name": "touching_ring_polygon"
      },
      "geometry": {
        "type": "Polygon",
        "coordinates": [
          [
            [0.0, 0.0],
            [6.0, 0.0],
            [6.0, 6.0],
            [0.0, 6.0],
            [0.0, 0.0]
          ],
          [
            [3.0, 0.0],
            [5.0, 2.0],
            [3.0, 4.0],
            [1.0, 2.0],
            [3.0, 0.0]
          ]
        ]
      }
    }
  ]
}
