<?xml version="1.0" encoding="utf-8" ?>
<kml xmlns="http://www.opengis.net/kml/2.2">
<Document id="root_doc">
<Schema name="point" id="point">
	<SimpleField name="id" type="string"></SimpleField>
</Schema>
<Folder><name>point</name>
  <Placemark id="point.1">
	<name>point_kml_baseline</name>
	<ExtendedData><SchemaData schemaUrl="#point">
		<SimpleData name="id">1</SimpleData>
	</SchemaData></ExtendedData>
      <Point><coordinates>12.5,55.7</coordinates></Point>
  </Placemark>
</Folder>
</Document></kml>
