{
  "type": "FeatureCollection",
  "name": "footprint",
  "crs": {
    "type": "name",
    "properties": {
      "name": "urn:ogc:def:crs:EPSG::32633"
    }
  },
  "features": [
    {
      "type": "Feature",
      "properties": {
        "location": "src/geocase/data/core/raster/geotiff_nodata_small/nodata_sample.tif"
      },
      "geometry": {
        "type": "MultiPolygon",
        "coordinates": [
          [
            [
              [
                501000.0,
                5610000.0
              ],
              [
                501000.0,
                5609000.0
              ],
              [
                500000.0,
                5609000.0
              ],
              [
                500000.0,
                5600000.0
              ],
              [
                510000.0,
                5600000.0
              ],
              [
                510000.0,
                5610000.0
              ],
              [
                501000.0,
                5610000.0
              ]
            ],
            [
              [
                505000.0,
                5605000.0
              ],
              [
                506000.0,
                5605000.0
              ],
              [
                506000.0,
                5604000.0
              ],
              [
                505000.0,
                5604000.0
              ],
              [
                505000.0,
                5605000.0
              ]
            ]
          ]
        ]
      }
    }
  ]
}