<?xml version="1.0" encoding="utf-8" ?>
<kml xmlns="http://www.opengis.net/kml/2.2">
<Document id="root_doc">
<Schema name="polygon" id="polygon">
	<SimpleField name="id" type="string"></SimpleField>
</Schema>
<Folder><name>polygon</name>
  <Placemark id="polygon.1">
	<name>polygon_kml_baseline</name>
	<Style><LineStyle><color>ff0000ff</color></LineStyle><PolyStyle><fill>0</fill></PolyStyle></Style>
	<ExtendedData><SchemaData schemaUrl="#polygon">
		<SimpleData name="id">1</SimpleData>
	</SchemaData></ExtendedData>
      <Polygon><outerBoundaryIs><LinearRing><coordinates>10,50 11,50 11,51 10,51 10,50</coordinates></LinearRing></outerBoundaryIs></Polygon>
  </Placemark>
</Folder>
</Document></kml>
