<?xml version="1.0" encoding="utf-8" ?>
<kml xmlns="http://www.opengis.net/kml/2.2">
<Document id="root_doc">
<Schema name="data" id="data">
	<SimpleField name="id" type="string"></SimpleField>
</Schema>
<Folder><name>data</name>
  <Placemark id="data.1">
	<name>linestring_kml_baseline</name>
	<Style><LineStyle><color>ff0000ff</color></LineStyle><PolyStyle><fill>0</fill></PolyStyle></Style>
	<ExtendedData><SchemaData schemaUrl="#data">
		<SimpleData name="id">1</SimpleData>
	</SchemaData></ExtendedData>
      <LineString><coordinates>10,50 10.5,50.3 11.0,50.1</coordinates></LineString>
  </Placemark>
</Folder>
</Document></kml>
