{
  "type": "FeatureCollection",
  "crs": {
    "type": "name",
    "properties": {
      "name": "EPSG:4326"
    }
  },
  "features": [
    {
      "type": "Feature",
      "properties": {
        "name": "south_pole_cap",
        "description": "Diamond polygon encircling the south pole"
      },
      "geometry": {
        "type": "Polygon",
        "coordinates": [
          [
            [0.0, -84.0],
            [-90.0, -87.0],
            [0.0, -89.5],
            [90.0, -87.0],
            [0.0, -84.0]
          ]
        ]
      }
    }
  ]
}
