{"type":"FeatureCollection","features":[{"type":"Feature","properties":{"id":1,"name":"dense_ring_polygon_4k"},"geometry":{"type":"Polygon","coordinates":[[[26.316,-30.6],[26.315925,-30.597828],[26.3157,-30.595657],[26.315324,-30.593487],[26.314799,-30.591319],[26.314125,-30.589154],[26.313302,-30.586992],[26.31233,-30.584834],[26.31121,-30.582681],[26.309944,-30.580533],[26.308531,-30.578392],[26.306974,-30.576257],[26.305272,-30.574129],[26.303427,-30.572009],[26.301441,-30.569898],[26.299314,-30.567797],[26.297048,-30.565704],[26.294645,-30.563623],[26.292107,-30.561552],[26.289434,-30.559493],[26.286629,-30.557445],[26.283694,-30.555411],[26.28063,-30.553389],[26.277441,-30.551382],[26.274127,-30.549388],[26.270691,-30.547409],[26.267136,-30.545445],[26.263464,-30.543496],[26.259677,-30.541564],[26.255779,-30.539648],[26.25177,-30.537748],[26.247655,-30.535866],[26.243437,-30.534001],[26.239117,-30.532154],[26.234699,-30.530325],[26.230186,-30.528515],[26.22558,-30.526723],[26.220886,-30.524949],[26.216106,-30.523196],[26.211243,-30.521461],[26.206301,-30.519746],[26.201283,-30.51805],[26.196193,-30.516374],[26.191033,-30.514718],[26.185808,-30.513082],[26.18052,-30.511466],[26.175174,-30.50987],[26.169773,-30.508294],[26.16432,-30.506738],[26.15882,-30.505202],[26.153276,-30.503686],[26.147691,-30.50219],[26.14207,-30.500713],[26.136416,-30.499256],[26.130733,-30.497818],[26.125025,-30.4964],[26.119295,-30.495001],[26.113548,-30.49362],[26.107788,-30.492258],[26.102017,-30.490914],[26.096241,-30.489587],[26.090462,-30.488279],[26.084685,-30.486987],[26.078914,-30.485713],[26.073152,-30.484455],[26.067403,-30.483212],[26.061672,-30.481986],[26.055961,-30.480774],[26.050275,-30.479577],[26.044617,-30.478394],[26.038992,-30.477224],[26.033402,-30.476068],[26.027853,-30.474924],[26.022346,-30.473791],[26.016886,-30.47267],[26.011477,-30.471559],[26.006121,-30.470458],[26.000824,-30.469366],[25.995587,-30.468283],[25.990415,-30.467208],[25.98531,-30.46614],[25.980277,-30.465078],[25.975318,-30.464022],[25.970436,-30.46297],[25.965636,-30.461923],[25.960919,-30.460879],[25.95629,-30.459838],[25.95175,-30.458798],[25.947303,-30.457759],[25.942952,-30.45672],[25.938699,-30.455681],[25.934547,-30.45464],[25.9305,-30.453596],[25.926558,-30.452549],[25.922726,-30.451498],[25.919004,-30.450442],[25.915397,-30.44938],[25.911905,-30.448311],[25.908531,-30.447235],[25.905277,-30.44615],[25.902145,-30.445056],[25.899137,-30.443951],[25.896255,-30.442835],[25.893501,-30.441707],[25.890875,-30.440567],[25.88838,-30.439412],[25.886018,-30.438244],[25.883788,-30.437059],[25.881694,-30.435858],[25.879735,-30.434641],[25.877913,-30.433405],[25.876229,-30.43215],[25.874684,-30.430876],[25.873279,-30.429582],[25.872013,-30.428266],[25.870889,-30.426929],[25.869906,-30.425568],[25.869064,-30.424185],[25.868365,-30.422777],[25.867807,-30.421344],[25.867392,-30.419886],[25.867119,-30.418401],[25.866987,-30.41689],[25.866998,-30.415351],[25.86715,-30.413784],[25.867443,-30.412188],[25.867877,-30.410562],[25.868451,-30.408907],[25.869163,-30.407221],[25.870014,-30.405505],[25.871003,-30.403757],[25.872128,-30.401977],[25.873388,-30.400164],[25.874783,-30.398319],[25.87631,-30.396441],[25.877968,-30.394529],[25.879757,-30.392584],[25.881674,-30.390604],[25.883717,-30.38859],[25.885886,-30.386541],[25.888177,-30.384458],[25.89059,-30.382339],[25.893122,-30.380185],[25.895771,-30.377996],[25.898535,-30.375771],[25.901412,-30.373511],[25.904399,-30.371216],[25.907493,-30.368884],[25.910694,-30.366518],[25.913997,-30.364116],[25.9174,-30.361678],[25.920901,-30.359206],[25.924496,-30.356698],[25.928184,-30.354156],[25.93196,-30.351578],[25.935823,-30.348967],[25.939768,-30.346321],[25.943794,-30.343642],[25.947896,-30.34093],[25.952073,-30.338184],[25.956319,-30.335406],[25.960633,-30.332596],[25.965011,-30.329754],[25.969449,-30.326881],[25.973944,-30.323977],[25.978492,-30.321044],[25.983091,-30.318081],[25.987737,-30.315089],[25.992425,-30.31207],[25.997153,-30.309023],[26.001917,-30.30595],[26.006713,-30.302851],[26.011538,-30.299726],[26.016387,-30.296578],[26.021258,-30.293406],[26.026146,-30.290212],[26.031048,-30.286997],[26.035961,-30.283761],[26.040879,-30.280505],[26.0458,-30.27723],[26.05072,-30.273938],[26.055636,-30.27063],[26.060542,-30.267305],[26.065437,-30.263967],[26.070316,-30.260615],[26.075174,-30.257251],[26.08001,-30.253875],[26.084819,-30.25049],[26.089596,-30.247096],[26.09434,-30.243695],[26.099046,-30.240287],[26.10371,-30.236874],[26.10833,-30.233457],[26.112901,-30.230038],[26.11742,-30.226617],[26.121884,-30.223196],[26.126289,-30.219777],[26.130632,-30.21636],[26.13491,-30.212947],[26.139119,-30.20954],[26.143256,-30.206138],[26.147318,-30.202745],[26.151302,-30.199361],[26.155205,-30.195988],[26.159023,-30.192626],[26.162755,-30.189278],[26.166396,-30.185944],[26.169945,-30.182626],[26.173398,-30.179326],[26.176753,-30.176044],[26.180008,-30.172783],[26.183159,-30.169542],[26.186204,-30.166324],[26.189141,-30.163131],[26.191967,-30.159962],[26.194681,-30.15682],[26.197279,-30.153707],[26.199761,-30.150622],[26.202124,-30.147568],[26.204366,-30.144545],[26.206485,-30.141555],[26.20848,-30.1386],[26.210348,-30.13568],[26.212089,-30.132796],[26.2137,-30.12995],[26.215181,-30.127144],[26.21653,-30.124377],[26.217746,-30.121651],[26.218828,-30.118967],[26.219775,-30.116327],[26.220585,-30.113731],[26.221258,-30.11118],[26.221793,-30.108676],[26.22219,-30.106218],[26.222448,-30.103809],[26.222567,-30.101449],[26.222545,-30.099139],[26.222384,-30.096879],[26.222082,-30.094671],[26.22164,-30.092515],[26.221057,-30.090412],[26.220334,-30.088363],[26.219471,-30.086368],[26.218469,-30.084428],[26.217327,-30.082543],[26.216046,-30.080715],[26.214627,-30.078943],[26.21307,-30.077227],[26.211376,-30.07557],[26.209547,-30.07397],[26.207582,-30.072428],[26.205483,-30.070945],[26.203252,-30.06952],[26.200889,-30.068155],[26.198395,-30.066848],[26.195773,-30.065601],[26.193023,-30.064412],[26.190147,-30.063283],[26.187147,-30.062214],[26.184025,-30.061203],[26.180782,-30.060252],[26.17742,-30.05936],[26.173941,-30.058527],[26.170347,-30.057752],[26.166641,-30.057035],[26.162825,-30.056377],[26.1589,-30.055776],[26.154869,-30.055232],[26.150735,-30.054745],[26.1465,-30.054314],[26.142166,-30.053939],[26.137737,-30.053619],[26.133215,-30.053353],[26.128602,-30.053142],[26.123901,-30.052983],[26.119116,-30.052877],[26.114249,-30.052822],[26.109303,-30.052817],[26.104281,-30.052862],[26.099186,-30.052956],[26.094021,-30.053098],[26.088789,-30.053287],[26.083494,-30.053521],[26.078138,-30.0538],[26.072725,-30.054122],[26.067259,-30.054487],[26.061742,-30.054892],[26.056177,-30.055338],[26.050569,-30.055821],[26.04492,-30.056342],[26.039234,-30.056899],[26.033515,-30.05749],[26.027765,-30.058114],[26.021989,-30.05877],[26.016189,-30.059455],[26.010369,-30.060169],[26.004533,-30.06091],[25.998685,-30.061676],[25.992826,-30.062466],[25.986962,-30.063278],[25.981096,-30.064111],[25.975231,-30.064962],[25.96937,-30.06583],[25.963517,-30.066714],[25.957676,-30.067611],[25.95185,-30.06852],[25.946042,-30.069438],[25.940255,-30.070365],[25.934494,-30.071299],[25.928761,-30.072237],[25.92306,-30.073178],[25.917394,-30.074119],[25.911767,-30.07506],[25.906181,-30.075997],[25.90064,-30.07693],[25.895147,-30.077857],[25.889704,-30.078774],[25.884316,-30.079682],[25.878985,-30.080577],[25.873715,-30.081458],[25.868507,-30.082322],[25.863365,-30.083169],[25.858292,-30.083996],[25.853291,-30.084801],[25.848364,-30.085583],[25.843514,-30.086339],[25.838743,-30.087067],[25.834055,-30.087767],[25.829451,-30.088436],[25.824934,-30.089071],[25.820507,-30.089673],[25.816172,-30.090237],[25.81193,-30.090764],[25.807784,-30.091251],[25.803736,-30.091696],[25.799789,-30.092097],[25.795944,-30.092454],[25.792202,-30.092764],[25.788566,-30.093026],[25.785037,-30.093238],[25.781618,-30.093399],[25.778309,-30.093507],[25.775112,-30.09356],[25.772028,-30.093558],[25.769058,-30.093498],[25.766205,-30.093379],[25.763469,-30.0932],[25.76085,-30.09296],[25.75835,-30.092657],[25.755971,-30.092291],[25.753711,-30.091859],[25.751573,-30.091361],[25.749557,-30.090795],[25.747663,-30.090161],[25.745892,-30.089458],[25.744245,-30.088684],[25.74272,-30.087838],[25.741319,-30.086921],[25.740042,-30.08593],[25.738888,-30.084866],[25.737858,-30.083727],[25.736951,-30.082513],[25.736167,-30.081223],[25.735506,-30.079856],[25.734968,-30.078413],[25.73455,-30.076892],[25.734254,-30.075293],[25.734079,-30.073616],[25.734023,-30.071861],[25.734085,-30.070027],[25.734266,-30.068114],[25.734563,-30.066123],[25.734976,-30.064052],[25.735503,-30.061902],[25.736143,-30.059673],[25.736895,-30.057365],[25.737758,-30.054979],[25.738729,-30.052514],[25.739807,-30.049971],[25.740992,-30.04735],[25.74228,-30.044652],[25.74367,-30.041877],[25.74516,-30.039025],[25.746749,-30.036097],[25.748434,-30.033095],[25.750213,-30.030017],[25.752084,-30.026867],[25.754045,-30.023643],[25.756094,-30.020347],[25.758228,-30.01698],[25.760445,-30.013543],[25.762743,-30.010036],[25.765118,-30.006462],[25.76757,-30.002821],[25.770094,-29.999114],[25.772689,-29.995343],[25.775351,-29.991509],[25.778078,-29.987613],[25.780868,-29.983657],[25.783717,-29.979642],[25.786622,-29.97557],[25.789581,-29.971442],[25.792592,-29.96726],[25.79565,-29.963026],[25.798753,-29.958741],[25.801898,-29.954407],[25.805082,-29.950026],[25.808302,-29.945599],[25.811555,-29.941129],[25.814838,-29.936617],[25.818147,-29.932066],[25.82148,-29.927477],[25.824834,-29.922853],[25.828205,-29.918195],[25.831591,-29.913505],[25.834988,-29.908787],[25.838392,-29.904041],[25.841802,-29.89927],[25.845213,-29.894477],[25.848624,-29.889663],[25.852029,-29.884831],[25.855427,-29.879983],[25.858815,-29.875121],[25.862189,-29.870248],[25.865545,-29.865367],[25.868882,-29.860478],[25.872196,-29.855586],[25.875485,-29.850692],[25.878744,-29.845798],[25.881971,-29.840908],[25.885163,-29.836022],[25.888318,-29.831145],[25.891432,-29.826279],[25.894503,-29.821425],[25.897527,-29.816586],[25.900503,-29.811765],[25.903426,-29.806964],[25.906295,-29.802186],[25.909107,-29.797432],[25.91186,-29.792706],[25.91455,-29.78801],[25.917175,-29.783346],[25.919733,-29.778716],[25.922221,-29.774124],[25.924637,-29.769571],[25.926979,-29.765059],[25.929245,-29.760592],[25.931432,-29.756171],[25.933537,-29.751798],[25.93556,-29.747476],[25.937498,-29.743207],[25.939349,-29.738993],[25.941112,-29.734837],[25.942783,-29.73074],[25.944363,-29.726705],[25.945848,-29.722733],[25.947238,-29.718827],[25.948531,-29.714989],[25.949725,-29.71122],[25.950819,-29.707522],[25.951811,-29.703898],[25.952701,-29.70035],[25.953487,-29.696878],[25.954168,-29.693485],[25.954744,-29.690172],[25.955212,-29.686941],[25.955573,-29.683793],[25.955825,-29.680731],[25.955968,-29.677755],[25.956,-29.674867],[25.955923,-29.672069],[25.955734,-29.669361],[25.955433,-29.666744],[25.955021,-29.664221],[25.954497,-29.661792],[25.953861,-29.659458],[25.953112,-29.65722],[25.952251,-29.655079],[25.951277,-29.653036],[25.950192,-29.651092],[25.948994,-29.649247],[25.947685,-29.647503],[25.946264,-29.645859],[25.944732,-29.644316],[25.94309,-29.642875],[25.941338,-29.641537],[25.939476,-29.6403],[25.937506,-29.639167],[25.935429,-29.638136],[25.933245,-29.637208],[25.930954,-29.636383],[25.928559,-29.635661],[25.92606,-29.635042],[25.923459,-29.634526],[25.920756,-29.634112],[25.917953,-29.633801],[25.915051,-29.633591],[25.912052,-29.633482],[25.908957,-29.633474],[25.905768,-29.633566],[25.902486,-29.633758],[25.899113,-29.634048],[25.895651,-29.634436],[25.892101,-29.634922],[25.888465,-29.635503],[25.884745,-29.636179],[25.880944,-29.636949],[25.877062,-29.637812],[25.873103,-29.638767],[25.869067,-29.639811],[25.864958,-29.640944],[25.860778,-29.642165],[25.856528,-29.643472],[25.852211,-29.644863],[25.84783,-29.646337],[25.843386,-29.647891],[25.838882,-29.649525],[25.83432,-29.651237],[25.829703,-29.653024],[25.825033,-29.654885],[25.820313,-29.656817],[25.815546,-29.658819],[25.810733,-29.660889],[25.805877,-29.663024],[25.800982,-29.665222],[25.796049,-29.667481],[25.791081,-29.6698],[25.786081,-29.672174],[25.781052,-29.674602],[25.775995,-29.677082],[25.770915,-29.679612],[25.765813,-29.682187],[25.760692,-29.684807],[25.755555,-29.687469],[25.750405,-29.690169],[25.745244,-29.692905],[25.740075,-29.695675],[25.7349,-29.698476],[25.729723,-29.701305],[25.724546,-29.704159],[25.719372,-29.707036],[25.714203,-29.709932],[25.709041,-29.712846],[25.703891,-29.715773],[25.698753,-29.718712],[25.693631,-29.721659],[25.688528,-29.724611],[25.683445,-29.727566],[25.678386,-29.730521],[25.673353,-29.733472],[25.668348,-29.736417],[25.663373,-29.739353],[25.658432,-29.742277],[25.653527,-29.745186],[25.648659,-29.748077],[25.643831,-29.750947],[25.639046,-29.753794],[25.634306,-29.756614],[25.629612,-29.759405],[25.624967,-29.762163],[25.620374,-29.764887],[25.615833,-29.767572],[25.611348,-29.770216],[25.60692,-29.772817],[25.602551,-29.775372],[25.598242,-29.777878],[25.593996,-29.780332],[25.589815,-29.782731],[25.5857,-29.785074],[25.581653,-29.787357],[25.577675,-29.789577],[25.573768,-29.791733],[25.569933,-29.793822],[25.566173,-29.795841],[25.562487,-29.797788],[25.558878,-29.799661],[25.555347,-29.801457],[25.551895,-29.803174],[25.548523,-29.80481],[25.545232,-29.806363],[25.542023,-29.80783],[25.538897,-29.80921],[25.535855,-29.810501],[25.532898,-29.8117],[25.530027,-29.812806],[25.527242,-29.813817],[25.524543,-29.814732],[25.521932,-29.815548],[25.519409,-29.816264],[25.516974,-29.816878],[25.514627,-29.81739],[25.51237,-29.817797],[25.510202,-29.818099],[25.508123,-29.818293],[25.506133,-29.81838],[25.504233,-29.818357],[25.502422,-29.818225],[25.5007,-29.81798],[25.499068,-29.817624],[25.497524,-29.817155],[25.496069,-29.816573],[25.494702,-29.815876],[25.493423,-29.815065],[25.492231,-29.814138],[25.491126,-29.813096],[25.490107,-29.811938],[25.489174,-29.810664],[25.488325,-29.809273],[25.487561,-29.807766],[25.486879,-29.806143],[25.48628,-29.804403],[25.485762,-29.802547],[25.485324,-29.800576],[25.484966,-29.798489],[25.484685,-29.796287],[25.484482,-29.793971],[25.484354,-29.791541],[25.4843,-29.788997],[25.48432,-29.786341],[25.484411,-29.783574],[25.484573,-29.780696],[25.484803,-29.777708],[25.485101,-29.774612],[25.485464,-29.771408],[25.485892,-29.768098],[25.486382,-29.764683],[25.486933,-29.761165],[25.487543,-29.757545],[25.48821,-29.753824],[25.488933,-29.750005],[25.48971,-29.746089],[25.490538,-29.742077],[25.491417,-29.737973],[25.492344,-29.733776],[25.493317,-29.72949],[25.494335,-29.725117],[25.495394,-29.720658],[25.496494,-29.716117],[25.497632,-29.711494],[25.498806,-29.706793],[25.500014,-29.702015],[25.501254,-29.697164],[25.502524,-29.692242],[25.503822,-29.687251],[25.505145,-29.682194],[25.506492,-29.677074],[25.507861,-29.671893],[25.509248,-29.666654],[25.510652,-29.66136],[25.512072,-29.656013],[25.513504,-29.650618],[25.514946,-29.645176],[25.516397,-29.63969],[25.517854,-29.634164],[25.519315,-29.628601],[25.520778,-29.623003],[25.522241,-29.617374],[25.523701,-29.611717],[25.525157,-29.606036],[25.526606,-29.600333],[25.528046,-29.594611],[25.529476,-29.588874],[25.530892,-29.583125],[25.532294,-29.577368],[25.533678,-29.571605],[25.535044,-29.56584],[25.536388,-29.560077],[25.53771,-29.554318],[25.539006,-29.548567],[25.540276,-29.542827],[25.541517,-29.537102],[25.542727,-29.531395],[25.543905,-29.525709],[25.545049,-29.520047],[25.546157,-29.514414],[25.547227,-29.508811],[25.548257,-29.503243],[25.549246,-29.497712],[25.550193,-29.492223],[25.551095,-29.486777],[25.551952,-29.481379],[25.552761,-29.476031],[25.553521,-29.470737],[25.554231,-29.465499],[25.554889,-29.460322],[25.555494,-29.455207],[25.556045,-29.450158],[25.556541,-29.445178],[25.556979,-29.44027],[25.55736,-29.435436],[25.557681,-29.43068],[25.557943,-29.426004],[25.558143,-29.421411],[25.558281,-29.416904],[25.558356,-29.412485],[25.558367,-29.408157],[25.558314,-29.403922],[25.558195,-29.399784],[25.55801,-29.395744],[25.557758,-29.391804],[25.557438,-29.387967],[25.557051,-29.384236],[25.556595,-29.380611],[25.556069,-29.377096],[25.555475,-29.373693],[25.55481,-29.370403],[25.554076,-29.367228],[25.553271,-29.364169],[25.552396,-29.36123],[25.55145,-29.35841],[25.550433,-29.355713],[25.549345,-29.353139],[25.548187,-29.350689],[25.546957,-29.348365],[25.545657,-29.346169],[25.544287,-29.3441],[25.542846,-29.342162],[25.541336,-29.340353],[25.539755,-29.338676],[25.538105,-29.33713],[25.536387,-29.335717],[25.534599,-29.334438],[25.532744,-29.333292],[25.530821,-29.33228],[25.528832,-29.331403],[25.526776,-29.33066],[25.524655,-29.330053],[25.522469,-29.32958],[25.520219,-29.329243],[25.517905,-29.32904],[25.51553,-29.328972],[25.513093,-29.329038],[25.510595,-29.329238],[25.508038,-29.329571],[25.505422,-29.330037],[25.502749,-29.330636],[25.500019,-29.331365],[25.497235,-29.332225],[25.494396,-29.333215],[25.491504,-29.334333],[25.48856,-29.335579],[25.485566,-29.336951],[25.482523,-29.338447],[25.479432,-29.340067],[25.476294,-29.341809],[25.473111,-29.343671],[25.469884,-29.345653],[25.466615,-29.347751],[25.463305,-29.349964],[25.459955,-29.352291],[25.456568,-29.354729],[25.453144,-29.357277],[25.449684,-29.359932],[25.446192,-29.362691],[25.442667,-29.365554],[25.439112,-29.368517],[25.435528,-29.371578],[25.431917,-29.374734],[25.42828,-29.377983],[25.424619,-29.381322],[25.420936,-29.384749],[25.417231,-29.388261],[25.413508,-29.391855],[25.409766,-29.395528],[25.406009,-29.399278],[25.402238,-29.4031],[25.398453,-29.406993],[25.394658,-29.410953],[25.390853,-29.414977],[25.38704,-29.419062],[25.38322,-29.423204],[25.379396,-29.427401],[25.375569,-29.431649],[25.371741,-29.435944],[25.367912,-29.440284],[25.364085,-29.444665],[25.360261,-29.449083],[25.356442,-29.453535],[25.352629,-29.458017],[25.348824,-29.462527],[25.345028,-29.46706],[25.341243,-29.471613],[25.33747,-29.476182],[25.333711,-29.480763],[25.329966,-29.485354],[25.326238,-29.489951],[25.322528,-29.494549],[25.318837,-29.499145],[25.315166,-29.503736],[25.311517,-29.508318],[25.307891,-29.512888],[25.30429,-29.517441],[25.300713,-29.521974],[25.297164,-29.526484],[25.293642,-29.530967],[25.290149,-29.53542],[25.286686,-29.539838],[25.283254,-29.544219],[25.279855,-29.548558],[25.276488,-29.552853],[25.273155,-29.557101],[25.269858,-29.561296],[25.266596,-29.565437],[25.263371,-29.56952],[25.260184,-29.573541],[25.257035,-29.577498],[25.253925,-29.581386],[25.250855,-29.585204],[25.247825,-29.588948],[25.244836,-29.592614],[25.241889,-29.5962],[25.238985,-29.599703],[25.236123,-29.603119],[25.233305,-29.606447],[25.23053,-29.609683],[25.227799,-29.612824],[25.225113,-29.615868],[25.222472,-29.618813],[25.219876,-29.621655],[25.217325,-29.624392],[25.21482,-29.627023],[25.212361,-29.629544],[25.209947,-29.631953],[25.20758,-29.634248],[25.205258,-29.636428],[25.202983,-29.63849],[25.200754,-29.640432],[25.19857,-29.642252],[25.196433,-29.643949],[25.194342,-29.64552],[25.192296,-29.646966],[25.190295,-29.648283],[25.18834,-29.64947],[25.18643,-29.650527],[25.184564,-29.651452],[25.182743,-29.652243],[25.180965,-29.652901],[25.179231,-29.653423],[25.17754,-29.653809],[25.175892,-29.654059],[25.174285,-29.654171],[25.17272,-29.654146],[25.171197,-29.653982],[25.169713,-29.653679],[25.168269,-29.653237],[25.166865,-29.652656],[25.165499,-29.651936],[25.16417,-29.651077],[25.162879,-29.650079],[25.161623,-29.648942],[25.160403,-29.647666],[25.159218,-29.646252],[25.158067,-29.644701],[25.156948,-29.643013],[25.155862,-29.641188],[25.154807,-29.639229],[25.153782,-29.637134],[25.152787,-29.634907],[25.15182,-29.632546],[25.15088,-29.630055],[25.149967,-29.627434],[25.149079,-29.624684],[25.148216,-29.621808],[25.147377,-29.618806],[25.146559,-29.61568],[25.145764,-29.612432],[25.144988,-29.609063],[25.144232,-29.605577],[25.143494,-29.601974],[25.142774,-29.598257],[25.142069,-29.594428],[25.14138,-29.590489],[25.140704,-29.586443],[25.140041,-29.582292],[25.13939,-29.578038],[25.13875,-29.573684],[25.138119,-29.569233],[25.137497,-29.564687],[25.136882,-29.560049],[25.136274,-29.555323],[25.135671,-29.55051],[25.135072,-29.545614],[25.134476,-29.540638],[25.133882,-29.535585],[25.13329,-29.530458],[25.132697,-29.52526],[25.132103,-29.519995],[25.131507,-29.514666],[25.130908,-29.509276],[25.130305,-29.503829],[25.129697,-29.498328],[25.129082,-29.492776],[25.128461,-29.487178],[25.127832,-29.481536],[25.127194,-29.475855],[25.126546,-29.470137],[25.125887,-29.464387],[25.125217,-29.458609],[25.124535,-29.452805],[25.123839,-29.44698],[25.123129,-29.441138],[25.122404,-29.435281],[25.121664,-29.429415],[25.120907,-29.423542],[25.120133,-29.417668],[25.119341,-29.411794],[25.118531,-29.405926],[25.117702,-29.400066],[25.116852,-29.39422],[25.115983,-29.38839],[25.115092,-29.38258],[25.11418,-29.376795],[25.113245,-29.371038],[25.112288,-29.365312],[25.111308,-29.359622],[25.110304,-29.353971],[25.109277,-29.348363],[25.108225,-29.342801],[25.107148,-29.33729],[25.106046,-29.331832],[25.104919,-29.326432],[25.103766,-29.321092],[25.102587,-29.315817],[25.101382,-29.31061],[25.10015,-29.305474],[25.098892,-29.300413],[25.097607,-29.29543],[25.096295,-29.290527],[25.094957,-29.28571],[25.093591,-29.28098],[25.092198,-29.27634],[25.090778,-29.271795],[25.089331,-29.267346],[25.087857,-29.262997],[25.086356,-29.25875],[25.084828,-29.254609],[25.083274,-29.250575],[25.081693,-29.246653],[25.080085,-29.242843],[25.078451,-29.23915],[25.076792,-29.235574],[25.075106,-29.232119],[25.073395,-29.228787],[25.071659,-29.225579],[25.069899,-29.222499],[25.068113,-29.219548],[25.066304,-29.216728],[25.06447,-29.21404],[25.062614,-29.211487],[25.060734,-29.20907],[25.058832,-29.206791],[25.056908,-29.204651],[25.054963,-29.202652],[25.052997,-29.200795],[25.05101,-29.199081],[25.049003,-29.19751],[25.046977,-29.196086],[25.044932,-29.194807],[25.042869,-29.193675],[25.040788,-29.19269],[25.03869,-29.191854],[25.036576,-29.191166],[25.034447,-29.190627],[25.032302,-29.190237],[25.030143,-29.189997],[25.02797,-29.189907],[25.025784,-29.189966],[25.023586,-29.190175],[25.021376,-29.190533],[25.019155,-29.191039],[25.016924,-29.191695],[25.014684,-29.192498],[25.012435,-29.193449],[25.010178,-29.194546],[25.007913,-29.195789],[25.005642,-29.197177],[25.003365,-29.198709],[25.001083,-29.200384],[24.998797,-29.2022],[24.996507,-29.204157],[24.994214,-29.206252],[24.991919,-29.208485],[24.989623,-29.210854],[24.987326,-29.213356],[24.985028,-29.215991],[24.982732,-29.218757],[24.980437,-29.221651],[24.978144,-29.224671],[24.975854,-29.227816],[24.973567,-29.231083],[24.971284,-29.234469],[24.969007,-29.237974],[24.966734,-29.241593],[24.964468,-29.245324],[24.962209,-29.249166],[24.959956,-29.253115],[24.957712,-29.257168],[24.955476,-29.261322],[24.95325,-29.265576],[24.951033,-29.269925],[24.948826,-29.274367],[24.94663,-29.278898],[24.944445,-29.283516],[24.942272,-29.288217],[24.940111,-29.292998],[24.937963,-29.297856],[24.935827,-29.302787],[24.933706,-29.307788],[24.931598,-29.312856],[24.929504,-29.317986],[24.927425,-29.323176],[24.925361,-29.328421],[24.923312,-29.333719],[24.921279,-29.339065],[24.919261,-29.344456],[24.91726,-29.349888],[24.915275,-29.355358],[24.913306,-29.360861],[24.911354,-29.366393],[24.909419,-29.371952],[24.907501,-29.377533],[24.9056,-29.383132],[24.903716,-29.388745],[24.901849,-29.394369],[24.9,-29.4],[24.898168,-29.405634],[24.896353,-29.411266],[24.894555,-29.416894],[24.892775,-29.422512],[24.891012,-29.428119],[24.889265,-29.433708],[24.887536,-29.439278],[24.885823,-29.444823],[24.884127,-29.45034],[24.882447,-29.455826],[24.880784,-29.461276],[24.879136,-29.466688],[24.877504,-29.472056],[24.875887,-29.477378],[24.874286,-29.482649],[24.872699,-29.487867],[24.871126,-29.493028],[24.869568,-29.498128],[24.868023,-29.503163],[24.866491,-29.508131],[24.864973,-29.513028],[24.863466,-29.517851],[24.861972,-29.522596],[24.860489,-29.52726],[24.859016,-29.53184],[24.857555,-29.536333],[24.856103,-29.540736],[24.85466,-29.545046],[24.853226,-29.54926],[24.851801,-29.553375],[24.850383,-29.557389],[24.848972,-29.561298],[24.847567,-29.565101],[24.846168,-29.568794],[24.844774,-29.572375],[24.843385,-29.575843],[24.841999,-29.579193],[24.840617,-29.582426],[24.839237,-29.585537],[24.837859,-29.588525],[24.836481,-29.591389],[24.835105,-29.594126],[24.833727,-29.596734],[24.832349,-29.599212],[24.830969,-29.601559],[24.829586,-29.603772],[24.8282,-29.605851],[24.82681,-29.607794],[24.825416,-29.609599],[24.824016,-29.611267],[24.82261,-29.612795],[24.821197,-29.614183],[24.819777,-29.61543],[24.818348,-29.616535],[24.81691,-29.617497],[24.815463,-29.618317],[24.814005,-29.618994],[24.812536,-29.619527],[24.811055,-29.619916],[24.809561,-29.620161],[24.808055,-29.620262],[24.806534,-29.620219],[24.804999,-29.620033],[24.803449,-29.619703],[24.801883,-29.61923],[24.800301,-29.618615],[24.798702,-29.617858],[24.797085,-29.61696],[24.79545,-29.615921],[24.793796,-29.614742],[24.792123,-29.613425],[24.79043,-29.611971],[24.788716,-29.61038],[24.786982,-29.608655],[24.785226,-29.606796],[24.783449,-29.604804],[24.781649,-29.602682],[24.779827,-29.600431],[24.777982,-29.598053],[24.776113,-29.59555],[24.77422,-29.592923],[24.772304,-29.590175],[24.770362,-29.587307],[24.768396,-29.584322],[24.766405,-29.581223],[24.764389,-29.578011],[24.762347,-29.574688],[24.76028,-29.571258],[24.758187,-29.567723],[24.756068,-29.564086],[24.753923,-29.560348],[24.751751,-29.556514],[24.749554,-29.552586],[24.74733,-29.548567],[24.74508,-29.544459],[24.742803,-29.540267],[24.740501,-29.535992],[24.738172,-29.531638],[24.735817,-29.527209],[24.733437,-29.522708],[24.731031,-29.518137],[24.728599,-29.513501],[24.726142,-29.508802],[24.723659,-29.504045],[24.721152,-29.499232],[24.718621,-29.494368],[24.716065,-29.489455],[24.713485,-29.484498],[24.710882,-29.4795],[24.708256,-29.474464],[24.705607,-29.469395],[24.702937,-29.464296],[24.700244,-29.459171],[24.697531,-29.454023],[24.694796,-29.448857],[24.692042,-29.443676],[24.689268,-29.438484],[24.686476,-29.433285],[24.683665,-29.428082],[24.680837,-29.422879],[24.677992,-29.417681],[24.675131,-29.412491],[24.672255,-29.407312],[24.669364,-29.402149],[24.666459,-29.397005],[24.663542,-29.391885],[24.660612,-29.386791],[24.657671,-29.381728],[24.654719,-29.376699],[24.651758,-29.371708],[24.648788,-29.366759],[24.64581,-29.361855],[24.642826,-29.356999],[24.639835,-29.352197],[24.63684,-29.34745],[24.633841,-29.342762],[24.630839,-29.338137],[24.627835,-29.333579],[24.62483,-29.32909],[24.621825,-29.324675],[24.618821,-29.320335],[24.61582,-29.316075],[24.612822,-29.311897],[24.609828,-29.307805],[24.60684,-29.303801],[24.603858,-29.29989],[24.600884,-29.296072],[24.597918,-29.292353],[24.594962,-29.288733],[24.592017,-29.285216],[24.589084,-29.281804],[24.586165,-29.278501],[24.583259,-29.275308],[24.580368,-29.272228],[24.577494,-29.269264],[24.574638,-29.266417],[24.5718,-29.263689],[24.568981,-29.261083],[24.566183,-29.258602],[24.563407,-29.256245],[24.560654,-29.254017],[24.557924,-29.251917],[24.555219,-29.249949],[24.552541,-29.248113],[24.549889,-29.246411],[24.547265,-29.244844],[24.54467,-29.243414],[24.542105,-29.242122],[24.53957,-29.240969],[24.537068,-29.239956],[24.534597,-29.239083],[24.532161,-29.238352],[24.529759,-29.237764],[24.527392,-29.237319],[24.525062,-29.237017],[24.522768,-29.236859],[24.520512,-29.236845],[24.518295,-29.236976],[24.516116,-29.237251],[24.513978,-29.237671],[24.511881,-29.238236],[24.509824,-29.238945],[24.50781,-29.239798],[24.505838,-29.240795],[24.503909,-29.241936],[24.502024,-29.243219],[24.500183,-29.244644],[24.498387,-29.246211],[24.496636,-29.247918],[24.49493,-29.249765],[24.49327,-29.25175],[24.491657,-29.253873],[24.49009,-29.256132],[24.48857,-29.258526],[24.487097,-29.261053],[24.485671,-29.263713],[24.484293,-29.266502],[24.482962,-29.269421],[24.481679,-29.272467],[24.480444,-29.275638],[24.479257,-29.278932],[24.478117,-29.282347],[24.477025,-29.285882],[24.475981,-29.289533],[24.474984,-29.2933],[24.474035,-29.297179],[24.473132,-29.301167],[24.472277,-29.305264],[24.471468,-29.309466],[24.470706,-29.31377],[24.469989,-29.318174],[24.469318,-29.322675],[24.468692,-29.327271],[24.468111,-29.331958],[24.467574,-29.336734],[24.46708,-29.341595],[24.466629,-29.346539],[24.466221,-29.351562],[24.465854,-29.356662],[24.465529,-29.361835],[24.465243,-29.367078],[24.464997,-29.372387],[24.464789,-29.37776],[24.46462,-29.383194],[24.464487,-29.388684],[24.46439,-29.394227],[24.464328,-29.39982],[24.4643,-29.40546],[24.464306,-29.411142],[24.464343,-29.416864],[24.464411,-29.422622],[24.464509,-29.428412],[24.464635,-29.434231],[24.464789,-29.440075],[24.464969,-29.44594],[24.465174,-29.451823],[24.465403,-29.457721],[24.465654,-29.463629],[24.465926,-29.469544],[24.466218,-29.475463],[24.466529,-29.481381],[24.466856,-29.487296],[24.4672,-29.493203],[24.467557,-29.499099],[24.467927,-29.504981],[24.468309,-29.510844],[24.4687,-29.516686],[24.4691,-29.522503],[24.469506,-29.52829],[24.469918,-29.534046],[24.470334,-29.539766],[24.470751,-29.545447],[24.47117,-29.551085],[24.471587,-29.556678],[24.472002,-29.562221],[24.472412,-29.567712],[24.472817,-29.573148],[24.473215,-29.578524],[24.473603,-29.583839],[24.473981,-29.589089],[24.474347,-29.59427],[24.474699,-29.599381],[24.475035,-29.604418],[24.475355,-29.609377],[24.475655,-29.614257],[24.475936,-29.619055],[24.476195,-29.623768],[24.47643,-29.628393],[24.47664,-29.632927],[24.476824,-29.637369],[24.476979,-29.641716],[24.477105,-29.645965],[24.4772,-29.650114],[24.477262,-29.654161],[24.477289,-29.658104],[24.477281,-29.661941],[24.477236,-29.66567],[24.477152,-29.669288],[24.477028,-29.672795],[24.476863,-29.676188],[24.476655,-29.679465],[24.476402,-29.682626],[24.476104,-29.685669],[24.475759,-29.688591],[24.475367,-29.691393],[24.474924,-29.694073],[24.474432,-29.696629],[24.473887,-29.69906],[24.47329,-29.701367],[24.472639,-29.703547],[24.471932,-29.7056],[24.47117,-29.707525],[24.47035,-29.709322],[24.469473,-29.71099],[24.468536,-29.712529],[24.46754,-29.713938],[24.466483,-29.715218],[24.465364,-29.716368],[24.464183,-29.717388],[24.462939,-29.718278],[24.461631,-29.719039],[24.460259,-29.71967],[24.458822,-29.720171],[24.457319,-29.720545],[24.455751,-29.720789],[24.454116,-29.720907],[24.452414,-29.720897],[24.450646,-29.720761],[24.448809,-29.7205],[24.446905,-29.720115],[24.444934,-29.719607],[24.442894,-29.718976],[24.440786,-29.718224],[24.438609,-29.717353],[24.436365,-29.716364],[24.434052,-29.715257],[24.431671,-29.714036],[24.429223,-29.7127],[24.426706,-29.711253],[24.424123,-29.709696],[24.421472,-29.70803],[24.418754,-29.706258],[24.41597,-29.704382],[24.41312,-29.702403],[24.410205,-29.700325],[24.407225,-29.698148],[24.404181,-29.695875],[24.401073,-29.693509],[24.397902,-29.691053],[24.39467,-29.688507],[24.391376,-29.685876],[24.388023,-29.683161],[24.384609,-29.680366],[24.381138,-29.677492],[24.377609,-29.674543],[24.374023,-29.671521],[24.370383,-29.66843],[24.366689,-29.665272],[24.362941,-29.66205],[24.359143,-29.658767],[24.355294,-29.655426],[24.351396,-29.65203],[24.347451,-29.648583],[24.34346,-29.645086],[24.339424,-29.641544],[24.335345,-29.63796],[24.331225,-29.634336],[24.327065,-29.630676],[24.322866,-29.626984],[24.318631,-29.623262],[24.314362,-29.619514],[24.310059,-29.615742],[24.305724,-29.611952],[24.301361,-29.608144],[24.296969,-29.604324],[24.292552,-29.600494],[24.288111,-29.596657],[24.283648,-29.592818],[24.279164,-29.588978],[24.274663,-29.585142],[24.270146,-29.581313],[24.265614,-29.577494],[24.261071,-29.573689],[24.256518,-29.5699],[24.251956,-29.566131],[24.247389,-29.562386],[24.242819,-29.558667],[24.238247,-29.554977],[24.233675,-29.55132],[24.229106,-29.5477],[24.224542,-29.544118],[24.219986,-29.540578],[24.215438,-29.537084],[24.210902,-29.533637],[24.206379,-29.530242],[24.201872,-29.526901],[24.197384,-29.523617],[24.192915,-29.520393],[24.188468,-29.517231],[24.184046,-29.514135],[24.179651,-29.511107],[24.175284,-29.508149],[24.170948,-29.505265],[24.166646,-29.502457],[24.162378,-29.499728],[24.158147,-29.497079],[24.153956,-29.494514],[24.149806,-29.492034],[24.1457,-29.489641],[24.141639,-29.487339],[24.137625,-29.485129],[24.133661,-29.483013],[24.129748,-29.480993],[24.125888,-29.479072],[24.122084,-29.47725],[24.118336,-29.475529],[24.114647,-29.473913],[24.111019,-29.472401],[24.107454,-29.470996],[24.103952,-29.469699],[24.100516,-29.468511],[24.097147,-29.467434],[24.093848,-29.466469],[24.090619,-29.465617],[24.087462,-29.464879],[24.084379,-29.464257],[24.081371,-29.463751],[24.078439,-29.463362],[24.075585,-29.463091],[24.07281,-29.462938],[24.070115,-29.462904],[24.067501,-29.46299],[24.06497,-29.463196],[24.062522,-29.463522],[24.06016,-29.463968],[24.057882,-29.464536],[24.055692,-29.465224],[24.053588,-29.466034],[24.051573,-29.466964],[24.049647,-29.468015],[24.04781,-29.469186],[24.046063,-29.470477],[24.044407,-29.471888],[24.042842,-29.473418],[24.041369,-29.475067],[24.039988,-29.476834],[24.038699,-29.478719],[24.037503,-29.48072],[24.0364,-29.482836],[24.035389,-29.485067],[24.034471,-29.487412],[24.033646,-29.48987],[24.032914,-29.492439],[24.032274,-29.495118],[24.031727,-29.497905],[24.031272,-29.5008],[24.030908,-29.503801],[24.030636,-29.506907],[24.030455,-29.510115],[24.030364,-29.513424],[24.030363,-29.516833],[24.030451,-29.520339],[24.030627,-29.523941],[24.030891,-29.527637],[24.031242,-29.531425],[24.031678,-29.535302],[24.032199,-29.539267],[24.032803,-29.543318],[24.03349,-29.547452],[24.034259,-29.551666],[24.035107,-29.55596],[24.036035,-29.56033],[24.03704,-29.564774],[24.03812,-29.569289],[24.039276,-29.573874],[24.040504,-29.578525],[24.041804,-29.58324],[24.043174,-29.588016],[24.044612,-29.592851],[24.046116,-29.597742],[24.047685,-29.602687],[24.049316,-29.607682],[24.051008,-29.612724],[24.052759,-29.617812],[24.054567,-29.622942],[24.056429,-29.628112],[24.058344,-29.633318],[24.06031,-29.638558],[24.062324,-29.643828],[24.064385,-29.649127],[24.066489,-29.65445],[24.068634,-29.659796],[24.070819,-29.66516],[24.073041,-29.670541],[24.075298,-29.675936],[24.077586,-29.681341],[24.079904,-29.686753],[24.08225,-29.69217],[24.08462,-29.697588],[24.087012,-29.703006],[24.089423,-29.708419],[24.091852,-29.713825],[24.094295,-29.719221],[24.096749,-29.724605],[24.099213,-29.729972],[24.101683,-29.735322],[24.104157,-29.74065],[24.106633,-29.745955],[24.109106,-29.751232],[24.111576,-29.756481],[24.114038,-29.761697],[24.116491,-29.766878],[24.118932,-29.772022],[24.121358,-29.777126],[24.123766,-29.782188],[24.126154,-29.787205],[24.128519,-29.792174],[24.130859,-29.797093],[24.13317,-29.80196],[24.13545,-29.806772],[24.137697,-29.811527],[24.139908,-29.816223],[24.14208,-29.820858],[24.14421,-29.825429],[24.146297,-29.829935],[24.148338,-29.834373],[24.15033,-29.838741],[24.15227,-29.843037],[24.154157,-29.847261],[24.155988,-29.851409],[24.15776,-29.85548],[24.159472,-29.859472],[24.16112,-29.863384],[24.162704,-29.867214],[24.164219,-29.87096],[24.165665,-29.874622],[24.16704,-29.878198],[24.16834,-29.881686],[24.169564,-29.885085],[24.170711,-29.888394],[24.171777,-29.891612],[24.172762,-29.894738],[24.173664,-29.897771],[24.17448,-29.900711],[24.175209,-29.903555],[24.17585,-29.906304],[24.1764,-29.908956],[24.176858,-29.911512],[24.177224,-29.91397],[24.177494,-29.916331],[24.177669,-29.918593],[24.177746,-29.920757],[24.177725,-29.922822],[24.177604,-29.924788],[24.177382,-29.926654],[24.177059,-29.928422],[24.176633,-29.93009],[24.176103,-29.93166],[24.175469,-29.93313],[24.17473,-29.934502],[24.173885,-29.935776],[24.172934,-29.936952],[24.171876,-29.93803],[24.170711,-29.939011],[24.169439,-29.939896],[24.168058,-29.940686],[24.16657,-29.94138],[24.164973,-29.94198],[24.163269,-29.942487],[24.161456,-29.942902],[24.159535,-29.943225],[24.157506,-29.943458],[24.15537,-29.943601],[24.153126,-29.943657],[24.150776,-29.943626],[24.148319,-29.943509],[24.145757,-29.943308],[24.14309,-29.943024],[24.140318,-29.942658],[24.137443,-29.942213],[24.134465,-29.94169],[24.131385,-29.94109],[24.128205,-29.940415],[24.124925,-29.939667],[24.121547,-29.938847],[24.118072,-29.937958],[24.114502,-29.937001],[24.110837,-29.935977],[24.107079,-29.93489],[24.103229,-29.933741],[24.09929,-29.932532],[24.095264,-29.931265],[24.09115,-29.929941],[24.086953,-29.928565],[24.082673,-29.927136],[24.078312,-29.925658],[24.073873,-29.924133],[24.069357,-29.922563],[24.064767,-29.920951],[24.060105,-29.919297],[24.055373,-29.917606],[24.050573,-29.915879],[24.045708,-29.914119],[24.04078,-29.912327],[24.035792,-29.910507],[24.030746,-29.908661],[24.025644,-29.906791],[24.02049,-29.904899],[24.015286,-29.902988],[24.010035,-29.901061],[24.004739,-29.899119],[23.999401,-29.897166],[23.994024,-29.895203],[23.988611,-29.893233],[23.983165,-29.891259],[23.977688,-29.889283],[23.972184,-29.887308],[23.966655,-29.885335],[23.961105,-29.883367],[23.955537,-29.881407],[23.949953,-29.879457],[23.944357,-29.877519],[23.938751,-29.875596],[23.93314,-29.87369],[23.927525,-29.871803],[23.921911,-29.869938],[23.916299,-29.868096],[23.910694,-29.866281],[23.905099,-29.864494],[23.899516,-29.862737],[23.893948,-29.861013],[23.8884,-29.859324],[23.882874,-29.857672],[23.877372,-29.856058],[23.871899,-29.854486],[23.866458,-29.852956],[23.86105,-29.851472],[23.855681,-29.850034],[23.850351,-29.848644],[23.845066,-29.847306],[23.839827,-29.846019],[23.834637,-29.844786],[23.8295,-29.84361],[23.824419,-29.84249],[23.819395,-29.84143],[23.814434,-29.84043],[23.809536,-29.839492],[23.804705,-29.838617],[23.799943,-29.837808],[23.795254,-29.837064],[23.79064,-29.836388],[23.786104,-29.835782],[23.781648,-29.835245],[23.777275,-29.834779],[23.772986,-29.834386],[23.768786,-29.834065],[23.764675,-29.83382],[23.760657,-29.833649],[23.756734,-29.833554],[23.752907,-29.833537],[23.749179,-29.833597],[23.745552,-29.833735],[23.742028,-29.833952],[23.738609,-29.834249],[23.735297,-29.834626],[23.732093,-29.835083],[23.729,-29.835622],[23.726018,-29.836241],[23.723151,-29.836942],[23.720398,-29.837725],[23.717762,-29.83859],[23.715244,-29.839537],[23.712845,-29.840566],[23.710566,-29.841677],[23.708409,-29.84287],[23.706374,-29.844145],[23.704463,-29.845501],[23.702676,-29.846939],[23.701014,-29.848459],[23.699479,-29.850059],[23.698069,-29.851739],[23.696787,-29.853499],[23.695633,-29.855339],[23.694606,-29.857258],[23.693707,-29.859255],[23.692937,-29.861329],[23.692295,-29.86348],[23.691781,-29.865707],[23.691396,-29.86801],[23.691139,-29.870386],[23.69101,-29.872836],[23.691009,-29.875358],[23.691134,-29.877952],[23.691387,-29.880616],[23.691766,-29.883349],[23.69227,-29.88615],[23.692899,-29.889018],[23.693651,-29.891952],[23.694526,-29.89495],[23.695524,-29.89801],[23.696641,-29.901133],[23.697879,-29.904315],[23.699234,-29.907556],[23.700707,-29.910854],[23.702295,-29.914209],[23.703996,-29.917617],[23.70581,-29.921078],[23.707735,-29.92459],[23.709768,-29.928152],[23.711908,-29.931761],[23.714154,-29.935416],[23.716502,-29.939116],[23.718951,-29.942858],[23.721499,-29.946641],[23.724144,-29.950464],[23.726883,-29.954323],[23.729714,-29.958219],[23.732635,-29.962147],[23.735642,-29.966108],[23.738734,-29.970099],[23.741909,-29.974118],[23.745162,-29.978163],[23.748492,-29.982233],[23.751896,-29.986326],[23.75537,-29.990438],[23.758913,-29.99457],[23.762521,-29.998719],[23.766191,-30.002882],[23.76992,-30.007059],[23.773706,-30.011246],[23.777544,-30.015443],[23.781432,-30.019647],[23.785366,-30.023857],[23.789344,-30.028071],[23.793362,-30.032286],[23.797417,-30.036501],[23.801505,-30.040713],[23.805624,-30.044923],[23.809769,-30.049126],[23.813938,-30.053322],[23.818126,-30.057509],[23.822331,-30.061685],[23.826549,-30.065848],[23.830777,-30.069996],[23.835011,-30.074128],[23.839247,-30.078243],[23.843483,-30.082337],[23.847715,-30.086411],[23.851938,-30.090461],[23.856151,-30.094488],[23.860348,-30.098488],[23.864528,-30.102461],[23.868686,-30.106404],[23.872818,-30.110317],[23.876922,-30.114198],[23.880995,-30.118046],[23.885031,-30.121859],[23.889029,-30.125636],[23.892985,-30.129376],[23.896896,-30.133077],[23.900757,-30.136738],[23.904567,-30.140358],[23.908321,-30.143936],[23.912017,-30.147471],[23.915652,-30.150961],[23.919222,-30.154406],[23.922723,-30.157804],[23.926155,-30.161155],[23.929512,-30.164458],[23.932792,-30.167711],[23.935993,-30.170915],[23.939111,-30.174067],[23.942144,-30.177169],[23.94509,-30.180218],[23.947944,-30.183214],[23.950705,-30.186157],[23.953371,-30.189046],[23.955938,-30.19188],[23.958404,-30.19466],[23.960768,-30.197384],[23.963026,-30.200052],[23.965177,-30.202665],[23.967218,-30.20522],[23.969148,-30.20772],[23.970964,-30.210162],[23.972665,-30.212548],[23.974248,-30.214876],[23.975712,-30.217147],[23.977056,-30.219362],[23.978277,-30.221519],[23.979375,-30.223619],[23.980347,-30.225662],[23.981193,-30.227648],[23.981912,-30.229578],[23.982502,-30.231451],[23.982962,-30.233269],[23.983291,-30.235031],[23.983489,-30.236737],[23.983554,-30.238389],[23.983486,-30.239986],[23.983285,-30.241529],[23.982949,-30.243018],[23.982479,-30.244455],[23.981874,-30.24584],[23.981135,-30.247173],[23.98026,-30.248455],[23.97925,-30.249687],[23.978105,-30.250869],[23.976825,-30.252003],[23.975411,-30.253088],[23.973862,-30.254127],[23.97218,-30.25512],[23.970364,-30.256067],[23.968416,-30.25697],[23.966337,-30.25783],[23.964126,-30.258647],[23.961785,-30.259423],[23.959316,-30.260159],[23.956719,-30.260855],[23.953995,-30.261514],[23.951145,-30.262135],[23.948172,-30.262721],[23.945077,-30.263272],[23.941861,-30.26379],[23.938525,-30.264275],[23.935072,-30.264729],[23.931504,-30.265153],[23.927822,-30.265549],[23.924028,-30.265917],[23.920125,-30.266259],[23.916114,-30.266577],[23.911998,-30.266871],[23.90778,-30.267142],[23.90346,-30.267393],[23.899043,-30.267625],[23.894531,-30.267838],[23.889925,-30.268034],[23.88523,-30.268215],[23.880447,-30.268381],[23.875579,-30.268535],[23.87063,-30.268677],[23.865602,-30.268809],[23.860498,-30.268932],[23.855321,-30.269047],[23.850075,-30.269157],[23.844762,-30.269261],[23.839386,-30.269362],[23.83395,-30.269461],[23.828458,-30.269559],[23.822912,-30.269657],[23.817316,-30.269757],[23.811673,-30.26986],[23.805988,-30.269967],[23.800263,-30.270079],[23.794502,-30.270199],[23.788708,-30.270326],[23.782886,-30.270462],[23.777038,-30.270609],[23.771169,-30.270767],[23.765282,-30.270938],[23.759381,-30.271123],[23.753469,-30.271322],[23.747551,-30.271538],[23.741629,-30.27177],[23.735708,-30.272021],[23.729791,-30.272291],[23.723883,-30.272581],[23.717986,-30.272893],[23.712105,-30.273226],[23.706242,-30.273582],[23.700403,-30.273963],[23.694591,-30.274368],[23.688809,-30.274798],[23.683061,-30.275256],[23.677351,-30.27574],[23.671682,-30.276253],[23.666058,-30.276794],[23.660482,-30.277364],[23.654959,-30.277965],[23.649491,-30.278597],[23.644082,-30.279259],[23.638736,-30.279954],[23.633455,-30.280682],[23.628244,-30.281442],[23.623106,-30.282235],[23.618043,-30.283063],[23.61306,-30.283925],[23.608159,-30.284822],[23.603344,-30.285754],[23.598617,-30.286721],[23.593981,-30.287724],[23.58944,-30.288762],[23.584997,-30.289837],[23.580654,-30.290949],[23.576414,-30.292096],[23.572279,-30.293281],[23.568253,-30.294502],[23.564338,-30.29576],[23.560536,-30.297054],[23.55685,-30.298386],[23.553282,-30.299754],[23.549835,-30.301158],[23.54651,-30.3026],[23.54331,-30.304077],[23.540237,-30.305591],[23.537292,-30.307141],[23.534477,-30.308727],[23.531795,-30.310349],[23.529247,-30.312006],[23.526834,-30.313697],[23.524558,-30.315424],[23.522421,-30.317184],[23.520423,-30.318979],[23.518566,-30.320807],[23.516851,-30.322668],[23.515279,-30.324562],[23.51385,-30.326487],[23.512567,-30.328445],[23.511429,-30.330433],[23.510437,-30.332452],[23.509592,-30.3345],[23.508893,-30.336578],[23.508342,-30.338684],[23.507939,-30.340818],[23.507683,-30.34298],[23.507575,-30.345168],[23.507614,-30.347382],[23.507802,-30.349622],[23.508136,-30.351885],[23.508617,-30.354173],[23.509245,-30.356483],[23.510018,-30.358815],[23.510936,-30.361169],[23.511999,-30.363543],[23.513205,-30.365937],[23.514554,-30.36835],[23.516044,-30.370781],[23.517675,-30.373229],[23.519445,-30.375694],[23.521352,-30.378174],[23.523395,-30.380668],[23.525573,-30.383177],[23.527885,-30.385698],[23.530327,-30.388231],[23.532899,-30.390776],[23.535599,-30.39333],[23.538424,-30.395894],[23.541373,-30.398467],[23.544443,-30.401047],[23.547633,-30.403634],[23.550939,-30.406226],[23.55436,-30.408824],[23.557893,-30.411426],[23.561535,-30.414031],[23.565284,-30.416638],[23.569137,-30.419247],[23.573091,-30.421857],[23.577144,-30.424466],[23.581292,-30.427075],[23.585533,-30.429681],[23.589863,-30.432286],[23.594279,-30.434886],[23.598779,-30.437483],[23.603359,-30.440075],[23.608016,-30.442661],[23.612746,-30.44524],[23.617546,-30.447813],[23.622413,-30.450377],[23.627343,-30.452933],[23.632332,-30.45548],[23.637378,-30.458017],[23.642476,-30.460543],[23.647623,-30.463058],[23.652815,-30.465562],[23.658049,-30.468053],[23.66332,-30.470531],[23.668626,-30.472996],[23.673961,-30.475447],[23.679324,-30.477883],[23.684709,-30.480304],[23.690112,-30.48271],[23.695531,-30.4851],[23.700961,-30.487474],[23.706399,-30.489831],[23.71184,-30.492171],[23.71728,-30.494494],[23.722717,-30.496799],[23.728145,-30.499086],[23.733561,-30.501355],[23.738962,-30.503605],[23.744343,-30.505836],[23.749701,-30.508049],[23.755032,-30.510242],[23.760331,-30.512417],[23.765596,-30.514572],[23.770823,-30.516707],[23.776008,-30.518823],[23.781146,-30.520919],[23.786236,-30.522995],[23.791272,-30.525052],[23.796252,-30.52709],[23.801172,-30.529107],[23.806028,-30.531106],[23.810818,-30.533085],[23.815537,-30.535044],[23.820182,-30.536985],[23.824751,-30.538906],[23.829239,-30.540809],[23.833644,-30.542693],[23.837962,-30.544559],[23.842191,-30.546406],[23.846327,-30.548236],[23.850368,-30.550049],[23.854311,-30.551844],[23.858153,-30.553622],[23.861891,-30.555384],[23.865522,-30.55713],[23.869045,-30.55886],[23.872456,-30.560575],[23.875753,-30.562275],[23.878934,-30.56396],[23.881997,-30.565632],[23.884939,-30.56729],[23.887759,-30.568935],[23.890453,-30.570568],[23.893022,-30.572189],[23.895461,-30.573798],[23.897771,-30.575397],[23.899949,-30.576985],[23.901994,-30.578564],[23.903904,-30.580133],[23.905678,-30.581695],[23.907315,-30.583248],[23.908814,-30.584794],[23.910173,-30.586334],[23.911391,-30.587867],[23.912468,-30.589396],[23.913403,-30.590919],[23.914195,-30.592439],[23.914844,-30.593955],[23.91535,-30.595469],[23.915711,-30.59698],[23.915928,-30.59849],[23.916,-30.6],[23.915928,-30.60151],[23.915711,-30.60302],[23.91535,-30.604531],[23.914844,-30.606045],[23.914195,-30.607561],[23.913403,-30.609081],[23.912468,-30.610604],[23.911391,-30.612133],[23.910173,-30.613666],[23.908814,-30.615206],[23.907315,-30.616752],[23.905678,-30.618305],[23.903904,-30.619867],[23.901994,-30.621436],[23.899949,-30.623015],[23.897771,-30.624603],[23.895461,-30.626202],[23.893022,-30.627811],[23.890453,-30.629432],[23.887759,-30.631065],[23.884939,-30.63271],[23.881997,-30.634368],[23.878934,-30.63604],[23.875753,-30.637725],[23.872456,-30.639425],[23.869045,-30.64114],[23.865522,-30.64287],[23.861891,-30.644616],[23.858153,-30.646378],[23.854311,-30.648156],[23.850368,-30.649951],[23.846327,-30.651764],[23.842191,-30.653594],[23.837962,-30.655441],[23.833644,-30.657307],[23.829239,-30.659191],[23.824751,-30.661094],[23.820182,-30.663015],[23.815537,-30.664956],[23.810818,-30.666915],[23.806028,-30.668894],[23.801172,-30.670893],[23.796252,-30.67291],[23.791272,-30.674948],[23.786236,-30.677005],[23.781146,-30.679081],[23.776008,-30.681177],[23.770823,-30.683293],[23.765596,-30.685428],[23.760331,-30.687583],[23.755032,-30.689758],[23.749701,-30.691951],[23.744343,-30.694164],[23.738962,-30.696395],[23.733561,-30.698645],[23.728145,-30.700914],[23.722717,-30.703201],[23.71728,-30.705506],[23.71184,-30.707829],[23.706399,-30.710169],[23.700961,-30.712526],[23.695531,-30.7149],[23.690112,-30.71729],[23.684709,-30.719696],[23.679324,-30.722117],[23.673961,-30.724553],[23.668626,-30.727004],[23.66332,-30.729469],[23.658049,-30.731947],[23.652815,-30.734438],[23.647623,-30.736942],[23.642476,-30.739457],[23.637378,-30.741983],[23.632332,-30.74452],[23.627343,-30.747067],[23.622413,-30.749623],[23.617546,-30.752187],[23.612746,-30.75476],[23.608016,-30.757339],[23.603359,-30.759925],[23.598779,-30.762517],[23.594279,-30.765114],[23.589863,-30.767714],[23.585533,-30.770319],[23.581292,-30.772925],[23.577144,-30.775534],[23.573091,-30.778143],[23.569137,-30.780753],[23.565284,-30.783362],[23.561535,-30.785969],[23.557893,-30.788574],[23.55436,-30.791176],[23.550939,-30.793774],[23.547633,-30.796366],[23.544443,-30.798953],[23.541373,-30.801533],[23.538424,-30.804106],[23.535599,-30.80667],[23.532899,-30.809224],[23.530327,-30.811769],[23.527885,-30.814302],[23.525573,-30.816823],[23.523395,-30.819332],[23.521352,-30.821826],[23.519445,-30.824306],[23.517675,-30.826771],[23.516044,-30.829219],[23.514554,-30.83165],[23.513205,-30.834063],[23.511999,-30.836457],[23.510936,-30.838831],[23.510018,-30.841185],[23.509245,-30.843517],[23.508617,-30.845827],[23.508136,-30.848115],[23.507802,-30.850378],[23.507614,-30.852618],[23.507575,-30.854832],[23.507683,-30.85702],[23.507939,-30.859182],[23.508342,-30.861316],[23.508893,-30.863422],[23.509592,-30.8655],[23.510437,-30.867548],[23.511429,-30.869567],[23.512567,-30.871555],[23.51385,-30.873513],[23.515279,-30.875438],[23.516851,-30.877332],[23.518566,-30.879193],[23.520423,-30.881021],[23.522421,-30.882816],[23.524558,-30.884576],[23.526834,-30.886303],[23.529247,-30.887994],[23.531795,-30.889651],[23.534477,-30.891273],[23.537292,-30.892859],[23.540237,-30.894409],[23.54331,-30.895923],[23.54651,-30.8974],[23.549835,-30.898842],[23.553282,-30.900246],[23.55685,-30.901614],[23.560536,-30.902946],[23.564338,-30.90424],[23.568253,-30.905498],[23.572279,-30.906719],[23.576414,-30.907904],[23.580654,-30.909051],[23.584997,-30.910163],[23.58944,-30.911238],[23.593981,-30.912276],[23.598617,-30.913279],[23.603344,-30.914246],[23.608159,-30.915178],[23.61306,-30.916075],[23.618043,-30.916937],[23.623106,-30.917765],[23.628244,-30.918558],[23.633455,-30.919318],[23.638736,-30.920046],[23.644082,-30.920741],[23.649491,-30.921403],[23.654959,-30.922035],[23.660482,-30.922636],[23.666058,-30.923206],[23.671682,-30.923747],[23.677351,-30.92426],[23.683061,-30.924744],[23.688809,-30.925202],[23.694591,-30.925632],[23.700403,-30.926037],[23.706242,-30.926418],[23.712105,-30.926774],[23.717986,-30.927107],[23.723883,-30.927419],[23.729791,-30.927709],[23.735708,-30.927979],[23.741629,-30.92823],[23.747551,-30.928462],[23.753469,-30.928678],[23.759381,-30.928877],[23.765282,-30.929062],[23.771169,-30.929233],[23.777038,-30.929391],[23.782886,-30.929538],[23.788708,-30.929674],[23.794502,-30.929801],[23.800263,-30.929921],[23.805988,-30.930033],[23.811673,-30.93014],[23.817316,-30.930243],[23.822912,-30.930343],[23.828458,-30.930441],[23.83395,-30.930539],[23.839386,-30.930638],[23.844762,-30.930739],[23.850075,-30.930843],[23.855321,-30.930953],[23.860498,-30.931068],[23.865602,-30.931191],[23.87063,-30.931323],[23.875579,-30.931465],[23.880447,-30.931619],[23.88523,-30.931785],[23.889925,-30.931966],[23.894531,-30.932162],[23.899043,-30.932375],[23.90346,-30.932607],[23.90778,-30.932858],[23.911998,-30.933129],[23.916114,-30.933423],[23.920125,-30.933741],[23.924028,-30.934083],[23.927822,-30.934451],[23.931504,-30.934847],[23.935072,-30.935271],[23.938525,-30.935725],[23.941861,-30.93621],[23.945077,-30.936728],[23.948172,-30.937279],[23.951145,-30.937865],[23.953995,-30.938486],[23.956719,-30.939145],[23.959316,-30.939841],[23.961785,-30.940577],[23.964126,-30.941353],[23.966337,-30.94217],[23.968416,-30.94303],[23.970364,-30.943933],[23.97218,-30.94488],[23.973862,-30.945873],[23.975411,-30.946912],[23.976825,-30.947997],[23.978105,-30.949131],[23.97925,-30.950313],[23.98026,-30.951545],[23.981135,-30.952827],[23.981874,-30.95416],[23.982479,-30.955545],[23.982949,-30.956982],[23.983285,-30.958471],[23.983486,-30.960014],[23.983554,-30.961611],[23.983489,-30.963263],[23.983291,-30.964969],[23.982962,-30.966731],[23.982502,-30.968549],[23.981912,-30.970422],[23.981193,-30.972352],[23.980347,-30.974338],[23.979375,-30.976381],[23.978277,-30.978481],[23.977056,-30.980638],[23.975712,-30.982853],[23.974248,-30.985124],[23.972665,-30.987452],[23.970964,-30.989838],[23.969148,-30.99228],[23.967218,-30.99478],[23.965177,-30.997335],[23.963026,-30.999948],[23.960768,-31.002616],[23.958404,-31.00534],[23.955938,-31.00812],[23.953371,-31.010954],[23.950705,-31.013843],[23.947944,-31.016786],[23.94509,-31.019782],[23.942144,-31.022831],[23.939111,-31.025933],[23.935993,-31.029085],[23.932792,-31.032289],[23.929512,-31.035542],[23.926155,-31.038845],[23.922723,-31.042196],[23.919222,-31.045594],[23.915652,-31.049039],[23.912017,-31.052529],[23.908321,-31.056064],[23.904567,-31.059642],[23.900757,-31.063262],[23.896896,-31.066923],[23.892985,-31.070624],[23.889029,-31.074364],[23.885031,-31.078141],[23.880995,-31.081954],[23.876922,-31.085802],[23.872818,-31.089683],[23.868686,-31.093596],[23.864528,-31.097539],[23.860348,-31.101512],[23.856151,-31.105512],[23.851938,-31.109539],[23.847715,-31.113589],[23.843483,-31.117663],[23.839247,-31.121757],[23.835011,-31.125872],[23.830777,-31.130004],[23.826549,-31.134152],[23.822331,-31.138315],[23.818126,-31.142491],[23.813938,-31.146678],[23.809769,-31.150874],[23.805624,-31.155077],[23.801505,-31.159287],[23.797417,-31.163499],[23.793362,-31.167714],[23.789344,-31.171929],[23.785366,-31.176143],[23.781432,-31.180353],[23.777544,-31.184557],[23.773706,-31.188754],[23.76992,-31.192941],[23.766191,-31.197118],[23.762521,-31.201281],[23.758913,-31.20543],[23.75537,-31.209562],[23.751896,-31.213674],[23.748492,-31.217767],[23.745162,-31.221837],[23.741909,-31.225882],[23.738734,-31.229901],[23.735642,-31.233892],[23.732635,-31.237853],[23.729714,-31.241781],[23.726883,-31.245677],[23.724144,-31.249536],[23.721499,-31.253359],[23.718951,-31.257142],[23.716502,-31.260884],[23.714154,-31.264584],[23.711908,-31.268239],[23.709768,-31.271848],[23.707735,-31.27541],[23.70581,-31.278922],[23.703996,-31.282383],[23.702295,-31.285791],[23.700707,-31.289146],[23.699234,-31.292444],[23.697879,-31.295685],[23.696641,-31.298867],[23.695524,-31.30199],[23.694526,-31.30505],[23.693651,-31.308048],[23.692899,-31.310982],[23.69227,-31.31385],[23.691766,-31.316651],[23.691387,-31.319384],[23.691134,-31.322048],[23.691009,-31.324642],[23.69101,-31.327164],[23.691139,-31.329614],[23.691396,-31.33199],[23.691781,-31.334293],[23.692295,-31.33652],[23.692937,-31.338671],[23.693707,-31.340745],[23.694606,-31.342742],[23.695633,-31.344661],[23.696787,-31.346501],[23.698069,-31.348261],[23.699479,-31.349941],[23.701014,-31.351541],[23.702676,-31.353061],[23.704463,-31.354499],[23.706374,-31.355855],[23.708409,-31.35713],[23.710566,-31.358323],[23.712845,-31.359434],[23.715244,-31.360463],[23.717762,-31.36141],[23.720398,-31.362275],[23.723151,-31.363058],[23.726018,-31.363759],[23.729,-31.364378],[23.732093,-31.364917],[23.735297,-31.365374],[23.738609,-31.365751],[23.742028,-31.366048],[23.745552,-31.366265],[23.749179,-31.366403],[23.752907,-31.366463],[23.756734,-31.366446],[23.760657,-31.366351],[23.764675,-31.36618],[23.768786,-31.365935],[23.772986,-31.365614],[23.777275,-31.365221],[23.781648,-31.364755],[23.786104,-31.364218],[23.79064,-31.363612],[23.795254,-31.362936],[23.799943,-31.362192],[23.804705,-31.361383],[23.809536,-31.360508],[23.814434,-31.35957],[23.819395,-31.35857],[23.824419,-31.35751],[23.8295,-31.35639],[23.834637,-31.355214],[23.839827,-31.353981],[23.845066,-31.352694],[23.850351,-31.351356],[23.855681,-31.349966],[23.86105,-31.348528],[23.866458,-31.347044],[23.871899,-31.345514],[23.877372,-31.343942],[23.882874,-31.342328],[23.8884,-31.340676],[23.893948,-31.338987],[23.899516,-31.337263],[23.905099,-31.335506],[23.910694,-31.333719],[23.916299,-31.331904],[23.921911,-31.330062],[23.927525,-31.328197],[23.93314,-31.32631],[23.938751,-31.324404],[23.944357,-31.322481],[23.949953,-31.320543],[23.955537,-31.318593],[23.961105,-31.316633],[23.966655,-31.314665],[23.972184,-31.312692],[23.977688,-31.310717],[23.983165,-31.308741],[23.988611,-31.306767],[23.994024,-31.304797],[23.999401,-31.302834],[24.004739,-31.300881],[24.010035,-31.298939],[24.015286,-31.297012],[24.02049,-31.295101],[24.025644,-31.293209],[24.030746,-31.291339],[24.035792,-31.289493],[24.04078,-31.287673],[24.045708,-31.285881],[24.050573,-31.284121],[24.055373,-31.282394],[24.060105,-31.280703],[24.064767,-31.279049],[24.069357,-31.277437],[24.073873,-31.275867],[24.078312,-31.274342],[24.082673,-31.272864],[24.086953,-31.271435],[24.09115,-31.270059],[24.095264,-31.268735],[24.09929,-31.267468],[24.103229,-31.266259],[24.107079,-31.26511],[24.110837,-31.264023],[24.114502,-31.262999],[24.118072,-31.262042],[24.121547,-31.261153],[24.124925,-31.260333],[24.128205,-31.259585],[24.131385,-31.25891],[24.134465,-31.25831],[24.137443,-31.257787],[24.140318,-31.257342],[24.14309,-31.256976],[24.145757,-31.256692],[24.148319,-31.256491],[24.150776,-31.256374],[24.153126,-31.256343],[24.15537,-31.256399],[24.157506,-31.256542],[24.159535,-31.256775],[24.161456,-31.257098],[24.163269,-31.257513],[24.164973,-31.25802],[24.16657,-31.25862],[24.168058,-31.259314],[24.169439,-31.260104],[24.170711,-31.260989],[24.171876,-31.26197],[24.172934,-31.263048],[24.173885,-31.264224],[24.17473,-31.265498],[24.175469,-31.26687],[24.176103,-31.26834],[24.176633,-31.26991],[24.177059,-31.271578],[24.177382,-31.273346],[24.177604,-31.275212],[24.177725,-31.277178],[24.177746,-31.279243],[24.177669,-31.281407],[24.177494,-31.283669],[24.177224,-31.28603],[24.176858,-31.288488],[24.1764,-31.291044],[24.17585,-31.293696],[24.175209,-31.296445],[24.17448,-31.299289],[24.173664,-31.302229],[24.172762,-31.305262],[24.171777,-31.308388],[24.170711,-31.311606],[24.169564,-31.314915],[24.16834,-31.318314],[24.16704,-31.321802],[24.165665,-31.325378],[24.164219,-31.32904],[24.162704,-31.332786],[24.16112,-31.336616],[24.159472,-31.340528],[24.15776,-31.34452],[24.155988,-31.348591],[24.154157,-31.352739],[24.15227,-31.356963],[24.15033,-31.361259],[24.148338,-31.365627],[24.146297,-31.370065],[24.14421,-31.374571],[24.14208,-31.379142],[24.139908,-31.383777],[24.137697,-31.388473],[24.13545,-31.393228],[24.13317,-31.39804],[24.130859,-31.402907],[24.128519,-31.407826],[24.126154,-31.412795],[24.123766,-31.417812],[24.121358,-31.422874],[24.118932,-31.427978],[24.116491,-31.433122],[24.114038,-31.438303],[24.111576,-31.443519],[24.109106,-31.448768],[24.106633,-31.454045],[24.104157,-31.45935],[24.101683,-31.464678],[24.099213,-31.470028],[24.096749,-31.475395],[24.094295,-31.480779],[24.091852,-31.486175],[24.089423,-31.491581],[24.087012,-31.496994],[24.08462,-31.502412],[24.08225,-31.50783],[24.079904,-31.513247],[24.077586,-31.518659],[24.075298,-31.524064],[24.073041,-31.529459],[24.070819,-31.53484],[24.068634,-31.540204],[24.066489,-31.54555],[24.064385,-31.550873],[24.062324,-31.556172],[24.06031,-31.561442],[24.058344,-31.566682],[24.056429,-31.571888],[24.054567,-31.577058],[24.052759,-31.582188],[24.051008,-31.587276],[24.049316,-31.592318],[24.047685,-31.597313],[24.046116,-31.602258],[24.044612,-31.607149],[24.043174,-31.611984],[24.041804,-31.61676],[24.040504,-31.621475],[24.039276,-31.626126],[24.03812,-31.630711],[24.03704,-31.635226],[24.036035,-31.63967],[24.035107,-31.64404],[24.034259,-31.648334],[24.03349,-31.652548],[24.032803,-31.656682],[24.032199,-31.660733],[24.031678,-31.664698],[24.031242,-31.668575],[24.030891,-31.672363],[24.030627,-31.676059],[24.030451,-31.679661],[24.030363,-31.683167],[24.030364,-31.686576],[24.030455,-31.689885],[24.030636,-31.693093],[24.030908,-31.696199],[24.031272,-31.6992],[24.031727,-31.702095],[24.032274,-31.704882],[24.032914,-31.707561],[24.033646,-31.71013],[24.034471,-31.712588],[24.035389,-31.714933],[24.0364,-31.717164],[24.037503,-31.71928],[24.038699,-31.721281],[24.039988,-31.723166],[24.041369,-31.724933],[24.042842,-31.726582],[24.044407,-31.728112],[24.046063,-31.729523],[24.04781,-31.730814],[24.049647,-31.731985],[24.051573,-31.733036],[24.053588,-31.733966],[24.055692,-31.734776],[24.057882,-31.735464],[24.06016,-31.736032],[24.062522,-31.736478],[24.06497,-31.736804],[24.067501,-31.73701],[24.070115,-31.737096],[24.07281,-31.737062],[24.075585,-31.736909],[24.078439,-31.736638],[24.081371,-31.736249],[24.084379,-31.735743],[24.087462,-31.735121],[24.090619,-31.734383],[24.093848,-31.733531],[24.097147,-31.732566],[24.100516,-31.731489],[24.103952,-31.730301],[24.107454,-31.729004],[24.111019,-31.727599],[24.114647,-31.726087],[24.118336,-31.724471],[24.122084,-31.72275],[24.125888,-31.720928],[24.129748,-31.719007],[24.133661,-31.716987],[24.137625,-31.714871],[24.141639,-31.712661],[24.1457,-31.710359],[24.149806,-31.707966],[24.153956,-31.705486],[24.158147,-31.702921],[24.162378,-31.700272],[24.166646,-31.697543],[24.170948,-31.694735],[24.175284,-31.691851],[24.179651,-31.688893],[24.184046,-31.685865],[24.188468,-31.682769],[24.192915,-31.679607],[24.197384,-31.676383],[24.201872,-31.673099],[24.206379,-31.669758],[24.210902,-31.666363],[24.215438,-31.662916],[24.219986,-31.659422],[24.224542,-31.655882],[24.229106,-31.6523],[24.233675,-31.64868],[24.238247,-31.645023],[24.242819,-31.641333],[24.247389,-31.637614],[24.251956,-31.633869],[24.256518,-31.6301],[24.261071,-31.626311],[24.265614,-31.622506],[24.270146,-31.618687],[24.274663,-31.614858],[24.279164,-31.611022],[24.283648,-31.607182],[24.288111,-31.603343],[24.292552,-31.599506],[24.296969,-31.595676],[24.301361,-31.591856],[24.305724,-31.588048],[24.310059,-31.584258],[24.314362,-31.580486],[24.318631,-31.576738],[24.322866,-31.573016],[24.327065,-31.569324],[24.331225,-31.565664],[24.335345,-31.56204],[24.339424,-31.558456],[24.34346,-31.554914],[24.347451,-31.551417],[24.351396,-31.54797],[24.355294,-31.544574],[24.359143,-31.541233],[24.362941,-31.53795],[24.366689,-31.534728],[24.370383,-31.53157],[24.374023,-31.528479],[24.377609,-31.525457],[24.381138,-31.522508],[24.384609,-31.519634],[24.388023,-31.516839],[24.391376,-31.514124],[24.39467,-31.511493],[24.397902,-31.508947],[24.401073,-31.506491],[24.404181,-31.504125],[24.407225,-31.501852],[24.410205,-31.499675],[24.41312,-31.497597],[24.41597,-31.495618],[24.418754,-31.493742],[24.421472,-31.49197],[24.424123,-31.490304],[24.426706,-31.488747],[24.429223,-31.4873],[24.431671,-31.485964],[24.434052,-31.484743],[24.436365,-31.483636],[24.438609,-31.482647],[24.440786,-31.481776],[24.442894,-31.481024],[24.444934,-31.480393],[24.446905,-31.479885],[24.448809,-31.4795],[24.450646,-31.479239],[24.452414,-31.479103],[24.454116,-31.479093],[24.455751,-31.479211],[24.457319,-31.479455],[24.458822,-31.479829],[24.460259,-31.48033],[24.461631,-31.480961],[24.462939,-31.481722],[24.464183,-31.482612],[24.465364,-31.483632],[24.466483,-31.484782],[24.46754,-31.486062],[24.468536,-31.487471],[24.469473,-31.48901],[24.47035,-31.490678],[24.47117,-31.492475],[24.471932,-31.4944],[24.472639,-31.496453],[24.47329,-31.498633],[24.473887,-31.50094],[24.474432,-31.503371],[24.474924,-31.505927],[24.475367,-31.508607],[24.475759,-31.511409],[24.476104,-31.514331],[24.476402,-31.517374],[24.476655,-31.520535],[24.476863,-31.523812],[24.477028,-31.527205],[24.477152,-31.530712],[24.477236,-31.53433],[24.477281,-31.538059],[24.477289,-31.541896],[24.477262,-31.545839],[24.4772,-31.549886],[24.477105,-31.554035],[24.476979,-31.558284],[24.476824,-31.562631],[24.47664,-31.567073],[24.47643,-31.571607],[24.476195,-31.576232],[24.475936,-31.580945],[24.475655,-31.585743],[24.475355,-31.590623],[24.475035,-31.595582],[24.474699,-31.600619],[24.474347,-31.60573],[24.473981,-31.610911],[24.473603,-31.616161],[24.473215,-31.621476],[24.472817,-31.626852],[24.472412,-31.632288],[24.472002,-31.637779],[24.471587,-31.643322],[24.47117,-31.648915],[24.470751,-31.654553],[24.470334,-31.660234],[24.469918,-31.665954],[24.469506,-31.67171],[24.4691,-31.677497],[24.4687,-31.683314],[24.468309,-31.689156],[24.467927,-31.695019],[24.467557,-31.700901],[24.4672,-31.706797],[24.466856,-31.712704],[24.466529,-31.718619],[24.466218,-31.724537],[24.465926,-31.730456],[24.465654,-31.736371],[24.465403,-31.742279],[24.465174,-31.748177],[24.464969,-31.75406],[24.464789,-31.759925],[24.464635,-31.765769],[24.464509,-31.771588],[24.464411,-31.777378],[24.464343,-31.783136],[24.464306,-31.788858],[24.4643,-31.79454],[24.464328,-31.80018],[24.46439,-31.805773],[24.464487,-31.811316],[24.46462,-31.816806],[24.464789,-31.82224],[24.464997,-31.827613],[24.465243,-31.832922],[24.465529,-31.838165],[24.465854,-31.843338],[24.466221,-31.848438],[24.466629,-31.853461],[24.46708,-31.858405],[24.467574,-31.863266],[24.468111,-31.868042],[24.468692,-31.872729],[24.469318,-31.877325],[24.469989,-31.881826],[24.470706,-31.88623],[24.471468,-31.890534],[24.472277,-31.894736],[24.473132,-31.898833],[24.474035,-31.902821],[24.474984,-31.9067],[24.475981,-31.910467],[24.477025,-31.914118],[24.478117,-31.917653],[24.479257,-31.921068],[24.480444,-31.924362],[24.481679,-31.927533],[24.482962,-31.930579],[24.484293,-31.933498],[24.485671,-31.936287],[24.487097,-31.938947],[24.48857,-31.941474],[24.49009,-31.943868],[24.491657,-31.946127],[24.49327,-31.94825],[24.49493,-31.950235],[24.496636,-31.952082],[24.498387,-31.953789],[24.500183,-31.955356],[24.502024,-31.956781],[24.503909,-31.958064],[24.505838,-31.959205],[24.50781,-31.960202],[24.509824,-31.961055],[24.511881,-31.961764],[24.513978,-31.962329],[24.516116,-31.962749],[24.518295,-31.963024],[24.520512,-31.963155],[24.522768,-31.963141],[24.525062,-31.962983],[24.527392,-31.962681],[24.529759,-31.962236],[24.532161,-31.961648],[24.534597,-31.960917],[24.537068,-31.960044],[24.53957,-31.959031],[24.542105,-31.957878],[24.54467,-31.956586],[24.547265,-31.955156],[24.549889,-31.953589],[24.552541,-31.951887],[24.555219,-31.950051],[24.557924,-31.948083],[24.560654,-31.945983],[24.563407,-31.943755],[24.566183,-31.941398],[24.568981,-31.938917],[24.5718,-31.936311],[24.574638,-31.933583],[24.577494,-31.930736],[24.580368,-31.927772],[24.583259,-31.924692],[24.586165,-31.921499],[24.589084,-31.918196],[24.592017,-31.914784],[24.594962,-31.911267],[24.597918,-31.907647],[24.600884,-31.903928],[24.603858,-31.90011],[24.60684,-31.896199],[24.609828,-31.892195],[24.612822,-31.888103],[24.61582,-31.883925],[24.618821,-31.879665],[24.621825,-31.875325],[24.62483,-31.87091],[24.627835,-31.866421],[24.630839,-31.861863],[24.633841,-31.857238],[24.63684,-31.85255],[24.639835,-31.847803],[24.642826,-31.843001],[24.64581,-31.838145],[24.648788,-31.833241],[24.651758,-31.828292],[24.654719,-31.823301],[24.657671,-31.818272],[24.660612,-31.813209],[24.663542,-31.808115],[24.666459,-31.802995],[24.669364,-31.797851],[24.672255,-31.792688],[24.675131,-31.787509],[24.677992,-31.782319],[24.680837,-31.777121],[24.683665,-31.771918],[24.686476,-31.766715],[24.689268,-31.761516],[24.692042,-31.756324],[24.694796,-31.751143],[24.697531,-31.745977],[24.700244,-31.740829],[24.702937,-31.735704],[24.705607,-31.730605],[24.708256,-31.725536],[24.710882,-31.7205],[24.713485,-31.715502],[24.716065,-31.710545],[24.718621,-31.705632],[24.721152,-31.700768],[24.723659,-31.695955],[24.726142,-31.691198],[24.728599,-31.686499],[24.731031,-31.681863],[24.733437,-31.677292],[24.735817,-31.672791],[24.738172,-31.668362],[24.740501,-31.664008],[24.742803,-31.659733],[24.74508,-31.655541],[24.74733,-31.651433],[24.749554,-31.647414],[24.751751,-31.643486],[24.753923,-31.639652],[24.756068,-31.635914],[24.758187,-31.632277],[24.76028,-31.628742],[24.762347,-31.625312],[24.764389,-31.621989],[24.766405,-31.618777],[24.768396,-31.615678],[24.770362,-31.612693],[24.772304,-31.609825],[24.77422,-31.607077],[24.776113,-31.60445],[24.777982,-31.601947],[24.779827,-31.599569],[24.781649,-31.597318],[24.783449,-31.595196],[24.785226,-31.593204],[24.786982,-31.591345],[24.788716,-31.58962],[24.79043,-31.588029],[24.792123,-31.586575],[24.793796,-31.585258],[24.79545,-31.584079],[24.797085,-31.58304],[24.798702,-31.582142],[24.800301,-31.581385],[24.801883,-31.58077],[24.803449,-31.580297],[24.804999,-31.579967],[24.806534,-31.579781],[24.808055,-31.579738],[24.809561,-31.579839],[24.811055,-31.580084],[24.812536,-31.580473],[24.814005,-31.581006],[24.815463,-31.581683],[24.81691,-31.582503],[24.818348,-31.583465],[24.819777,-31.58457],[24.821197,-31.585817],[24.82261,-31.587205],[24.824016,-31.588733],[24.825416,-31.590401],[24.82681,-31.592206],[24.8282,-31.594149],[24.829586,-31.596228],[24.830969,-31.598441],[24.832349,-31.600788],[24.833727,-31.603266],[24.835105,-31.605874],[24.836481,-31.608611],[24.837859,-31.611475],[24.839237,-31.614463],[24.840617,-31.617574],[24.841999,-31.620807],[24.843385,-31.624157],[24.844774,-31.627625],[24.846168,-31.631206],[24.847567,-31.634899],[24.848972,-31.638702],[24.850383,-31.642611],[24.851801,-31.646625],[24.853226,-31.65074],[24.85466,-31.654954],[24.856103,-31.659264],[24.857555,-31.663667],[24.859016,-31.66816],[24.860489,-31.67274],[24.861972,-31.677404],[24.863466,-31.682149],[24.864973,-31.686972],[24.866491,-31.691869],[24.868023,-31.696837],[24.869568,-31.701872],[24.871126,-31.706972],[24.872699,-31.712133],[24.874286,-31.717351],[24.875887,-31.722622],[24.877504,-31.727944],[24.879136,-31.733312],[24.880784,-31.738724],[24.882447,-31.744174],[24.884127,-31.74966],[24.885823,-31.755177],[24.887536,-31.760722],[24.889265,-31.766292],[24.891012,-31.771881],[24.892775,-31.777488],[24.894555,-31.783106],[24.896353,-31.788734],[24.898168,-31.794366],[24.9,-31.8],[24.901849,-31.805631],[24.903716,-31.811255],[24.9056,-31.816868],[24.907501,-31.822467],[24.909419,-31.828048],[24.911354,-31.833607],[24.913306,-31.839139],[24.915275,-31.844642],[24.91726,-31.850112],[24.919261,-31.855544],[24.921279,-31.860935],[24.923312,-31.866281],[24.925361,-31.871579],[24.927425,-31.876824],[24.929504,-31.882014],[24.931598,-31.887144],[24.933706,-31.892212],[24.935827,-31.897213],[24.937963,-31.902144],[24.940111,-31.907002],[24.942272,-31.911783],[24.944445,-31.916484],[24.94663,-31.921102],[24.948826,-31.925633],[24.951033,-31.930075],[24.95325,-31.934424],[24.955476,-31.938678],[24.957712,-31.942832],[24.959956,-31.946885],[24.962209,-31.950834],[24.964468,-31.954676],[24.966734,-31.958407],[24.969007,-31.962026],[24.971284,-31.965531],[24.973567,-31.968917],[24.975854,-31.972184],[24.978144,-31.975329],[24.980437,-31.978349],[24.982732,-31.981243],[24.985028,-31.984009],[24.987326,-31.986644],[24.989623,-31.989146],[24.991919,-31.991515],[24.994214,-31.993748],[24.996507,-31.995843],[24.998797,-31.9978],[25.001083,-31.999616],[25.003365,-32.001291],[25.005642,-32.002823],[25.007913,-32.004211],[25.010178,-32.005454],[25.012435,-32.006551],[25.014684,-32.007502],[25.016924,-32.008305],[25.019155,-32.008961],[25.021376,-32.009467],[25.023586,-32.009825],[25.025784,-32.010034],[25.02797,-32.010093],[25.030143,-32.010003],[25.032302,-32.009763],[25.034447,-32.009373],[25.036576,-32.008834],[25.03869,-32.008146],[25.040788,-32.00731],[25.042869,-32.006325],[25.044932,-32.005193],[25.046977,-32.003914],[25.049003,-32.00249],[25.05101,-32.000919],[25.052997,-31.999205],[25.054963,-31.997348],[25.056908,-31.995349],[25.058832,-31.993209],[25.060734,-31.99093],[25.062614,-31.988513],[25.06447,-31.98596],[25.066304,-31.983272],[25.068113,-31.980452],[25.069899,-31.977501],[25.071659,-31.974421],[25.073395,-31.971213],[25.075106,-31.967881],[25.076792,-31.964426],[25.078451,-31.96085],[25.080085,-31.957157],[25.081693,-31.953347],[25.083274,-31.949425],[25.084828,-31.945391],[25.086356,-31.94125],[25.087857,-31.937003],[25.089331,-31.932654],[25.090778,-31.928205],[25.092198,-31.92366],[25.093591,-31.91902],[25.094957,-31.91429],[25.096295,-31.909473],[25.097607,-31.90457],[25.098892,-31.899587],[25.10015,-31.894526],[25.101382,-31.88939],[25.102587,-31.884183],[25.103766,-31.878908],[25.104919,-31.873568],[25.106046,-31.868168],[25.107148,-31.86271],[25.108225,-31.857199],[25.109277,-31.851637],[25.110304,-31.846029],[25.111308,-31.840378],[25.112288,-31.834688],[25.113245,-31.828962],[25.11418,-31.823205],[25.115092,-31.81742],[25.115983,-31.81161],[25.116852,-31.80578],[25.117702,-31.799934],[25.118531,-31.794074],[25.119341,-31.788206],[25.120133,-31.782332],[25.120907,-31.776458],[25.121664,-31.770585],[25.122404,-31.764719],[25.123129,-31.758862],[25.123839,-31.75302],[25.124535,-31.747195],[25.125217,-31.741391],[25.125887,-31.735613],[25.126546,-31.729863],[25.127194,-31.724145],[25.127832,-31.718464],[25.128461,-31.712822],[25.129082,-31.707224],[25.129697,-31.701672],[25.130305,-31.696171],[25.130908,-31.690724],[25.131507,-31.685334],[25.132103,-31.680005],[25.132697,-31.67474],[25.13329,-31.669542],[25.133882,-31.664415],[25.134476,-31.659362],[25.135072,-31.654386],[25.135671,-31.64949],[25.136274,-31.644677],[25.136882,-31.639951],[25.137497,-31.635313],[25.138119,-31.630767],[25.13875,-31.626316],[25.13939,-31.621962],[25.140041,-31.617708],[25.140704,-31.613557],[25.14138,-31.609511],[25.142069,-31.605572],[25.142774,-31.601743],[25.143494,-31.598026],[25.144232,-31.594423],[25.144988,-31.590937],[25.145764,-31.587568],[25.146559,-31.58432],[25.147377,-31.581194],[25.148216,-31.578192],[25.149079,-31.575316],[25.149967,-31.572566],[25.15088,-31.569945],[25.15182,-31.567454],[25.152787,-31.565093],[25.153782,-31.562866],[25.154807,-31.560771],[25.155862,-31.558812],[25.156948,-31.556987],[25.158067,-31.555299],[25.159218,-31.553748],[25.160403,-31.552334],[25.161623,-31.551058],[25.162879,-31.549921],[25.16417,-31.548923],[25.165499,-31.548064],[25.166865,-31.547344],[25.168269,-31.546763],[25.169713,-31.546321],[25.171197,-31.546018],[25.17272,-31.545854],[25.174285,-31.545829],[25.175892,-31.545941],[25.17754,-31.546191],[25.179231,-31.546577],[25.180965,-31.547099],[25.182743,-31.547757],[25.184564,-31.548548],[25.18643,-31.549473],[25.18834,-31.55053],[25.190295,-31.551717],[25.192296,-31.553034],[25.194342,-31.55448],[25.196433,-31.556051],[25.19857,-31.557748],[25.200754,-31.559568],[25.202983,-31.56151],[25.205258,-31.563572],[25.20758,-31.565752],[25.209947,-31.568047],[25.212361,-31.570456],[25.21482,-31.572977],[25.217325,-31.575608],[25.219876,-31.578345],[25.222472,-31.581187],[25.225113,-31.584132],[25.227799,-31.587176],[25.23053,-31.590317],[25.233305,-31.593553],[25.236123,-31.596881],[25.238985,-31.600297],[25.241889,-31.6038],[25.244836,-31.607386],[25.247825,-31.611052],[25.250855,-31.614796],[25.253925,-31.618614],[25.257035,-31.622502],[25.260184,-31.626459],[25.263371,-31.63048],[25.266596,-31.634563],[25.269858,-31.638704],[25.273155,-31.642899],[25.276488,-31.647147],[25.279855,-31.651442],[25.283254,-31.655781],[25.286686,-31.660162],[25.290149,-31.66458],[25.293642,-31.669033],[25.297164,-31.673516],[25.300713,-31.678026],[25.30429,-31.682559],[25.307891,-31.687112],[25.311517,-31.691682],[25.315166,-31.696264],[25.318837,-31.700855],[25.322528,-31.705451],[25.326238,-31.710049],[25.329966,-31.714646],[25.333711,-31.719237],[25.33747,-31.723818],[25.341243,-31.728387],[25.345028,-31.73294],[25.348824,-31.737473],[25.352629,-31.741983],[25.356442,-31.746465],[25.360261,-31.750917],[25.364085,-31.755335],[25.367912,-31.759716],[25.371741,-31.764056],[25.375569,-31.768351],[25.379396,-31.772599],[25.38322,-31.776796],[25.38704,-31.780938],[25.390853,-31.785023],[25.394658,-31.789047],[25.398453,-31.793007],[25.402238,-31.7969],[25.406009,-31.800722],[25.409766,-31.804472],[25.413508,-31.808145],[25.417231,-31.811739],[25.420936,-31.815251],[25.424619,-31.818678],[25.42828,-31.822017],[25.431917,-31.825266],[25.435528,-31.828422],[25.439112,-31.831483],[25.442667,-31.834446],[25.446192,-31.837309],[25.449684,-31.840068],[25.453144,-31.842723],[25.456568,-31.845271],[25.459955,-31.847709],[25.463305,-31.850036],[25.466615,-31.852249],[25.469884,-31.854347],[25.473111,-31.856329],[25.476294,-31.858191],[25.479432,-31.859933],[25.482523,-31.861553],[25.485566,-31.863049],[25.48856,-31.864421],[25.491504,-31.865667],[25.494396,-31.866785],[25.497235,-31.867775],[25.500019,-31.868635],[25.502749,-31.869364],[25.505422,-31.869963],[25.508038,-31.870429],[25.510595,-31.870762],[25.513093,-31.870962],[25.51553,-31.871028],[25.517905,-31.87096],[25.520219,-31.870757],[25.522469,-31.87042],[25.524655,-31.869947],[25.526776,-31.86934],[25.528832,-31.868597],[25.530821,-31.86772],[25.532744,-31.866708],[25.534599,-31.865562],[25.536387,-31.864283],[25.538105,-31.86287],[25.539755,-31.861324],[25.541336,-31.859647],[25.542846,-31.857838],[25.544287,-31.8559],[25.545657,-31.853831],[25.546957,-31.851635],[25.548187,-31.849311],[25.549345,-31.846861],[25.550433,-31.844287],[25.55145,-31.84159],[25.552396,-31.83877],[25.553271,-31.835831],[25.554076,-31.832772],[25.55481,-31.829597],[25.555475,-31.826307],[25.556069,-31.822904],[25.556595,-31.819389],[25.557051,-31.815764],[25.557438,-31.812033],[25.557758,-31.808196],[25.55801,-31.804256],[25.558195,-31.800216],[25.558314,-31.796078],[25.558367,-31.791843],[25.558356,-31.787515],[25.558281,-31.783096],[25.558143,-31.778589],[25.557943,-31.773996],[25.557681,-31.76932],[25.55736,-31.764564],[25.556979,-31.75973],[25.556541,-31.754822],[25.556045,-31.749842],[25.555494,-31.744793],[25.554889,-31.739678],[25.554231,-31.734501],[25.553521,-31.729263],[25.552761,-31.723969],[25.551952,-31.718621],[25.551095,-31.713223],[25.550193,-31.707777],[25.549246,-31.702288],[25.548257,-31.696757],[25.547227,-31.691189],[25.546157,-31.685586],[25.545049,-31.679953],[25.543905,-31.674291],[25.542727,-31.668605],[25.541517,-31.662898],[25.540276,-31.657173],[25.539006,-31.651433],[25.53771,-31.645682],[25.536388,-31.639923],[25.535044,-31.63416],[25.533678,-31.628395],[25.532294,-31.622632],[25.530892,-31.616875],[25.529476,-31.611126],[25.528046,-31.605389],[25.526606,-31.599667],[25.525157,-31.593964],[25.523701,-31.588283],[25.522241,-31.582626],[25.520778,-31.576997],[25.519315,-31.571399],[25.517854,-31.565836],[25.516397,-31.56031],[25.514946,-31.554824],[25.513504,-31.549382],[25.512072,-31.543987],[25.510652,-31.53864],[25.509248,-31.533346],[25.507861,-31.528107],[25.506492,-31.522926],[25.505145,-31.517806],[25.503822,-31.512749],[25.502524,-31.507758],[25.501254,-31.502836],[25.500014,-31.497985],[25.498806,-31.493207],[25.497632,-31.488506],[25.496494,-31.483883],[25.495394,-31.479342],[25.494335,-31.474883],[25.493317,-31.47051],[25.492344,-31.466224],[25.491417,-31.462027],[25.490538,-31.457923],[25.48971,-31.453911],[25.488933,-31.449995],[25.48821,-31.446176],[25.487543,-31.442455],[25.486933,-31.438835],[25.486382,-31.435317],[25.485892,-31.431902],[25.485464,-31.428592],[25.485101,-31.425388],[25.484803,-31.422292],[25.484573,-31.419304],[25.484411,-31.416426],[25.48432,-31.413659],[25.4843,-31.411003],[25.484354,-31.408459],[25.484482,-31.406029],[25.484685,-31.403713],[25.484966,-31.401511],[25.485324,-31.399424],[25.485762,-31.397453],[25.48628,-31.395597],[25.486879,-31.393857],[25.487561,-31.392234],[25.488325,-31.390727],[25.489174,-31.389336],[25.490107,-31.388062],[25.491126,-31.386904],[25.492231,-31.385862],[25.493423,-31.384935],[25.494702,-31.384124],[25.496069,-31.383427],[25.497524,-31.382845],[25.499068,-31.382376],[25.5007,-31.38202],[25.502422,-31.381775],[25.504233,-31.381643],[25.506133,-31.38162],[25.508123,-31.381707],[25.510202,-31.381901],[25.51237,-31.382203],[25.514627,-31.38261],[25.516974,-31.383122],[25.519409,-31.383736],[25.521932,-31.384452],[25.524543,-31.385268],[25.527242,-31.386183],[25.530027,-31.387194],[25.532898,-31.3883],[25.535855,-31.389499],[25.538897,-31.39079],[25.542023,-31.39217],[25.545232,-31.393637],[25.548523,-31.39519],[25.551895,-31.396826],[25.555347,-31.398543],[25.558878,-31.400339],[25.562487,-31.402212],[25.566173,-31.404159],[25.569933,-31.406178],[25.573768,-31.408267],[25.577675,-31.410423],[25.581653,-31.412643],[25.5857,-31.414926],[25.589815,-31.417269],[25.593996,-31.419668],[25.598242,-31.422122],[25.602551,-31.424628],[25.60692,-31.427183],[25.611348,-31.429784],[25.615833,-31.432428],[25.620374,-31.435113],[25.624967,-31.437837],[25.629612,-31.440595],[25.634306,-31.443386],[25.639046,-31.446206],[25.643831,-31.449053],[25.648659,-31.451923],[25.653527,-31.454814],[25.658432,-31.457723],[25.663373,-31.460647],[25.668348,-31.463583],[25.673353,-31.466528],[25.678386,-31.469479],[25.683445,-31.472434],[25.688528,-31.475389],[25.693631,-31.478341],[25.698753,-31.481288],[25.703891,-31.484227],[25.709041,-31.487154],[25.714203,-31.490068],[25.719372,-31.492964],[25.724546,-31.495841],[25.729723,-31.498695],[25.7349,-31.501524],[25.740075,-31.504325],[25.745244,-31.507095],[25.750405,-31.509831],[25.755555,-31.512531],[25.760692,-31.515193],[25.765813,-31.517813],[25.770915,-31.520388],[25.775995,-31.522918],[25.781052,-31.525398],[25.786081,-31.527826],[25.791081,-31.5302],[25.796049,-31.532519],[25.800982,-31.534778],[25.805877,-31.536976],[25.810733,-31.539111],[25.815546,-31.541181],[25.820313,-31.543183],[25.825033,-31.545115],[25.829703,-31.546976],[25.83432,-31.548763],[25.838882,-31.550475],[25.843386,-31.552109],[25.84783,-31.553663],[25.852211,-31.555137],[25.856528,-31.556528],[25.860778,-31.557835],[25.864958,-31.559056],[25.869067,-31.560189],[25.873103,-31.561233],[25.877062,-31.562188],[25.880944,-31.563051],[25.884745,-31.563821],[25.888465,-31.564497],[25.892101,-31.565078],[25.895651,-31.565564],[25.899113,-31.565952],[25.902486,-31.566242],[25.905768,-31.566434],[25.908957,-31.566526],[25.912052,-31.566518],[25.915051,-31.566409],[25.917953,-31.566199],[25.920756,-31.565888],[25.923459,-31.565474],[25.92606,-31.564958],[25.928559,-31.564339],[25.930954,-31.563617],[25.933245,-31.562792],[25.935429,-31.561864],[25.937506,-31.560833],[25.939476,-31.5597],[25.941338,-31.558463],[25.94309,-31.557125],[25.944732,-31.555684],[25.946264,-31.554141],[25.947685,-31.552497],[25.948994,-31.550753],[25.950192,-31.548908],[25.951277,-31.546964],[25.952251,-31.544921],[25.953112,-31.54278],[25.953861,-31.540542],[25.954497,-31.538208],[25.955021,-31.535779],[25.955433,-31.533256],[25.955734,-31.530639],[25.955923,-31.527931],[25.956,-31.525133],[25.955968,-31.522245],[25.955825,-31.519269],[25.955573,-31.516207],[25.955212,-31.513059],[25.954744,-31.509828],[25.954168,-31.506515],[25.953487,-31.503122],[25.952701,-31.49965],[25.951811,-31.496102],[25.950819,-31.492478],[25.949725,-31.48878],[25.948531,-31.485011],[25.947238,-31.481173],[25.945848,-31.477267],[25.944363,-31.473295],[25.942783,-31.46926],[25.941112,-31.465163],[25.939349,-31.461007],[25.937498,-31.456793],[25.93556,-31.452524],[25.933537,-31.448202],[25.931432,-31.443829],[25.929245,-31.439408],[25.926979,-31.434941],[25.924637,-31.430429],[25.922221,-31.425876],[25.919733,-31.421284],[25.917175,-31.416654],[25.91455,-31.41199],[25.91186,-31.407294],[25.909107,-31.402568],[25.906295,-31.397814],[25.903426,-31.393036],[25.900503,-31.388235],[25.897527,-31.383414],[25.894503,-31.378575],[25.891432,-31.373721],[25.888318,-31.368855],[25.885163,-31.363978],[25.881971,-31.359092],[25.878744,-31.354202],[25.875485,-31.349308],[25.872196,-31.344414],[25.868882,-31.339522],[25.865545,-31.334633],[25.862189,-31.329752],[25.858815,-31.324879],[25.855427,-31.320017],[25.852029,-31.315169],[25.848624,-31.310337],[25.845213,-31.305523],[25.841802,-31.30073],[25.838392,-31.295959],[25.834988,-31.291213],[25.831591,-31.286495],[25.828205,-31.281805],[25.824834,-31.277147],[25.82148,-31.272523],[25.818147,-31.267934],[25.814838,-31.263383],[25.811555,-31.258871],[25.808302,-31.254401],[25.805082,-31.249974],[25.801898,-31.245593],[25.798753,-31.241259],[25.79565,-31.236974],[25.792592,-31.23274],[25.789581,-31.228558],[25.786622,-31.22443],[25.783717,-31.220358],[25.780868,-31.216343],[25.778078,-31.212387],[25.775351,-31.208491],[25.772689,-31.204657],[25.770094,-31.200886],[25.76757,-31.197179],[25.765118,-31.193538],[25.762743,-31.189964],[25.760445,-31.186457],[25.758228,-31.18302],[25.756094,-31.179653],[25.754045,-31.176357],[25.752084,-31.173133],[25.750213,-31.169983],[25.748434,-31.166905],[25.746749,-31.163903],[25.74516,-31.160975],[25.74367,-31.158123],[25.74228,-31.155348],[25.740992,-31.15265],[25.739807,-31.150029],[25.738729,-31.147486],[25.737758,-31.145021],[25.736895,-31.142635],[25.736143,-31.140327],[25.735503,-31.138098],[25.734976,-31.135948],[25.734563,-31.133877],[25.734266,-31.131886],[25.734085,-31.129973],[25.734023,-31.128139],[25.734079,-31.126384],[25.734254,-31.124707],[25.73455,-31.123108],[25.734968,-31.121587],[25.735506,-31.120144],[25.736167,-31.118777],[25.736951,-31.117487],[25.737858,-31.116273],[25.738888,-31.115134],[25.740042,-31.11407],[25.741319,-31.113079],[25.74272,-31.112162],[25.744245,-31.111316],[25.745892,-31.110542],[25.747663,-31.109839],[25.749557,-31.109205],[25.751573,-31.108639],[25.753711,-31.108141],[25.755971,-31.107709],[25.75835,-31.107343],[25.76085,-31.10704],[25.763469,-31.1068],[25.766205,-31.106621],[25.769058,-31.106502],[25.772028,-31.106442],[25.775112,-31.10644],[25.778309,-31.106493],[25.781618,-31.106601],[25.785037,-31.106762],[25.788566,-31.106974],[25.792202,-31.107236],[25.795944,-31.107546],[25.799789,-31.107903],[25.803736,-31.108304],[25.807784,-31.108749],[25.81193,-31.109236],[25.816172,-31.109763],[25.820507,-31.110327],[25.824934,-31.110929],[25.829451,-31.111564],[25.834055,-31.112233],[25.838743,-31.112933],[25.843514,-31.113661],[25.848364,-31.114417],[25.853291,-31.115199],[25.858292,-31.116004],[25.863365,-31.116831],[25.868507,-31.117678],[25.873715,-31.118542],[25.878985,-31.119423],[25.884316,-31.120318],[25.889704,-31.121226],[25.895147,-31.122143],[25.90064,-31.12307],[25.906181,-31.124003],[25.911767,-31.12494],[25.917394,-31.125881],[25.92306,-31.126822],[25.928761,-31.127763],[25.934494,-31.128701],[25.940255,-31.129635],[25.946042,-31.130562],[25.95185,-31.13148],[25.957676,-31.132389],[25.963517,-31.133286],[25.96937,-31.13417],[25.975231,-31.135038],[25.981096,-31.135889],[25.986962,-31.136722],[25.992826,-31.137534],[25.998685,-31.138324],[26.004533,-31.13909],[26.010369,-31.139831],[26.016189,-31.140545],[26.021989,-31.14123],[26.027765,-31.141886],[26.033515,-31.14251],[26.039234,-31.143101],[26.04492,-31.143658],[26.050569,-31.144179],[26.056177,-31.144662],[26.061742,-31.145108],[26.067259,-31.145513],[26.072725,-31.145878],[26.078138,-31.1462],[26.083494,-31.146479],[26.088789,-31.146713],[26.094021,-31.146902],[26.099186,-31.147044],[26.104281,-31.147138],[26.109303,-31.147183],[26.114249,-31.147178],[26.119116,-31.147123],[26.123901,-31.147017],[26.128602,-31.146858],[26.133215,-31.146647],[26.137737,-31.146381],[26.142166,-31.146061],[26.1465,-31.145686],[26.150735,-31.145255],[26.154869,-31.144768],[26.1589,-31.144224],[26.162825,-31.143623],[26.166641,-31.142965],[26.170347,-31.142248],[26.173941,-31.141473],[26.17742,-31.14064],[26.180782,-31.139748],[26.184025,-31.138797],[26.187147,-31.137786],[26.190147,-31.136717],[26.193023,-31.135588],[26.195773,-31.134399],[26.198395,-31.133152],[26.200889,-31.131845],[26.203252,-31.13048],[26.205483,-31.129055],[26.207582,-31.127572],[26.209547,-31.12603],[26.211376,-31.12443],[26.21307,-31.122773],[26.214627,-31.121057],[26.216046,-31.119285],[26.217327,-31.117457],[26.218469,-31.115572],[26.219471,-31.113632],[26.220334,-31.111637],[26.221057,-31.109588],[26.22164,-31.107485],[26.222082,-31.105329],[26.222384,-31.103121],[26.222545,-31.100861],[26.222567,-31.098551],[26.222448,-31.096191],[26.22219,-31.093782],[26.221793,-31.091324],[26.221258,-31.08882],[26.220585,-31.086269],[26.219775,-31.083673],[26.218828,-31.081033],[26.217746,-31.078349],[26.21653,-31.075623],[26.215181,-31.072856],[26.2137,-31.07005],[26.212089,-31.067204],[26.210348,-31.06432],[26.20848,-31.0614],[26.206485,-31.058445],[26.204366,-31.055455],[26.202124,-31.052432],[26.199761,-31.049378],[26.197279,-31.046293],[26.194681,-31.04318],[26.191967,-31.040038],[26.189141,-31.036869],[26.186204,-31.033676],[26.183159,-31.030458],[26.180008,-31.027217],[26.176753,-31.023956],[26.173398,-31.020674],[26.169945,-31.017374],[26.166396,-31.014056],[26.162755,-31.010722],[26.159023,-31.007374],[26.155205,-31.004012],[26.151302,-31.000639],[26.147318,-30.997255],[26.143256,-30.993862],[26.139119,-30.99046],[26.13491,-30.987053],[26.130632,-30.98364],[26.126289,-30.980223],[26.121884,-30.976804],[26.11742,-30.973383],[26.112901,-30.969962],[26.10833,-30.966543],[26.10371,-30.963126],[26.099046,-30.959713],[26.09434,-30.956305],[26.089596,-30.952904],[26.084819,-30.94951],[26.08001,-30.946125],[26.075174,-30.942749],[26.070316,-30.939385],[26.065437,-30.936033],[26.060542,-30.932695],[26.055636,-30.92937],[26.05072,-30.926062],[26.0458,-30.92277],[26.040879,-30.919495],[26.035961,-30.916239],[26.031048,-30.913003],[26.026146,-30.909788],[26.021258,-30.906594],[26.016387,-30.903422],[26.011538,-30.900274],[26.006713,-30.897149],[26.001917,-30.89405],[25.997153,-30.890977],[25.992425,-30.88793],[25.987737,-30.884911],[25.983091,-30.881919],[25.978492,-30.878956],[25.973944,-30.876023],[25.969449,-30.873119],[25.965011,-30.870246],[25.960633,-30.867404],[25.956319,-30.864594],[25.952073,-30.861816],[25.947896,-30.85907],[25.943794,-30.856358],[25.939768,-30.853679],[25.935823,-30.851033],[25.93196,-30.848422],[25.928184,-30.845844],[25.924496,-30.843302],[25.920901,-30.840794],[25.9174,-30.838322],[25.913997,-30.835884],[25.910694,-30.833482],[25.907493,-30.831116],[25.904399,-30.828784],[25.901412,-30.826489],[25.898535,-30.824229],[25.895771,-30.822004],[25.893122,-30.819815],[25.89059,-30.817661],[25.888177,-30.815542],[25.885886,-30.813459],[25.883717,-30.81141],[25.881674,-30.809396],[25.879757,-30.807416],[25.877968,-30.805471],[25.87631,-30.803559],[25.874783,-30.801681],[25.873388,-30.799836],[25.872128,-30.798023],[25.871003,-30.796243],[25.870014,-30.794495],[25.869163,-30.792779],[25.868451,-30.791093],[25.867877,-30.789438],[25.867443,-30.787812],[25.86715,-30.786216],[25.866998,-30.784649],[25.866987,-30.78311],[25.867119,-30.781599],[25.867392,-30.780114],[25.867807,-30.778656],[25.868365,-30.777223],[25.869064,-30.775815],[25.869906,-30.774432],[25.870889,-30.773071],[25.872013,-30.771734],[25.873279,-30.770418],[25.874684,-30.769124],[25.876229,-30.76785],[25.877913,-30.766595],[25.879735,-30.765359],[25.881694,-30.764142],[25.883788,-30.762941],[25.886018,-30.761756],[25.88838,-30.760588],[25.890875,-30.759433],[25.893501,-30.758293],[25.896255,-30.757165],[25.899137,-30.756049],[25.902145,-30.754944],[25.905277,-30.75385],[25.908531,-30.752765],[25.911905,-30.751689],[25.915397,-30.75062],[25.919004,-30.749558],[25.922726,-30.748502],[25.926558,-30.747451],[25.9305,-30.746404],[25.934547,-30.74536],[25.938699,-30.744319],[25.942952,-30.74328],[25.947303,-30.742241],[25.95175,-30.741202],[25.95629,-30.740162],[25.960919,-30.739121],[25.965636,-30.738077],[25.970436,-30.73703],[25.975318,-30.735978],[25.980277,-30.734922],[25.98531,-30.73386],[25.990415,-30.732792],[25.995587,-30.731717],[26.000824,-30.730634],[26.006121,-30.729542],[26.011477,-30.728441],[26.016886,-30.72733],[26.022346,-30.726209],[26.027853,-30.725076],[26.033402,-30.723932],[26.038992,-30.722776],[26.044617,-30.721606],[26.050275,-30.720423],[26.055961,-30.719226],[26.061672,-30.718014],[26.067403,-30.716788],[26.073152,-30.715545],[26.078914,-30.714287],[26.084685,-30.713013],[26.090462,-30.711721],[26.096241,-30.710413],[26.102017,-30.709086],[26.107788,-30.707742],[26.113548,-30.70638],[26.119295,-30.704999],[26.125025,-30.7036],[26.130733,-30.702182],[26.136416,-30.700744],[26.14207,-30.699287],[26.147691,-30.69781],[26.153276,-30.696314],[26.15882,-30.694798],[26.16432,-30.693262],[26.169773,-30.691706],[26.175174,-30.69013],[26.18052,-30.688534],[26.185808,-30.686918],[26.191033,-30.685282],[26.196193,-30.683626],[26.201283,-30.68195],[26.206301,-30.680254],[26.211243,-30.678539],[26.216106,-30.676804],[26.220886,-30.675051],[26.22558,-30.673277],[26.230186,-30.671485],[26.234699,-30.669675],[26.239117,-30.667846],[26.243437,-30.665999],[26.247655,-30.664134],[26.25177,-30.662252],[26.255779,-30.660352],[26.259677,-30.658436],[26.263464,-30.656504],[26.267136,-30.654555],[26.270691,-30.652591],[26.274127,-30.650612],[26.277441,-30.648618],[26.28063,-30.646611],[26.283694,-30.644589],[26.286629,-30.642555],[26.289434,-30.640507],[26.292107,-30.638448],[26.294645,-30.636377],[26.297048,-30.634296],[26.299314,-30.632203],[26.301441,-30.630102],[26.303427,-30.627991],[26.305272,-30.625871],[26.306974,-30.623743],[26.308531,-30.621608],[26.309944,-30.619467],[26.31121,-30.617319],[26.31233,-30.615166],[26.313302,-30.613008],[26.314125,-30.610846],[26.314799,-30.608681],[26.315324,-30.606513],[26.3157,-30.604343],[26.315925,-30.602172],[26.316,-30.6]]]}}]}
